<?xml version="1.0" encoding="UTF-8"?><gpx creator="Garmin Connect" version="1.1"
xsi:schemaLocation="http://www.topografix.com/GPX/1/1 http://www.topografix.com/GPX/11.xsd"
xmlns:ns3="http://www.garmin.com/xmlschemas/TrackPointExtension/v1"
xmlns="http://www.topografix.com/GPX/1/1"
xmlns:xsi="http://www.w3.org/2001/XMLSchema-instance"
xmlns:ns2="http://www.garmin.com/xmlschemas/GpxExtensions/v3"><metadata><time>2026-02-08T06:55:12.000Z</time></metadata><trk><type>20260208Бег на улице</type><extensions><totalTime>803</totalTime><cumulativeDecrease>23</cumulativeDecrease><cumulativeClimb>24.8</cumulativeClimb><totalDistance>1960</totalDistance><routeType>0</routeType></extensions><trkseg><trkpt lat="47.830946" lon="35.021153"><ele>85.3</ele><time>2026-02-08T06:55:12.000Z</time></trkpt>
<trkpt lat="47.830947" lon="35.021155"><ele>85.3</ele><time>2026-02-08T06:55:13.000Z</time></trkpt>
<trkpt lat="47.830947" lon="35.021155"><ele>85.3</ele><time>2026-02-08T06:55:14.000Z</time></trkpt>
<trkpt lat="47.830947" lon="35.021156"><ele>85.3</ele><time>2026-02-08T06:55:15.000Z</time></trkpt>
<trkpt lat="47.830947" lon="35.021157"><ele>85.3</ele><time>2026-02-08T06:55:16.000Z</time></trkpt>
<trkpt lat="47.830947" lon="35.021157"><ele>85.3</ele><time>2026-02-08T06:55:17.000Z</time></trkpt>
<trkpt lat="47.830948" lon="35.021157"><ele>85.3</ele><time>2026-02-08T06:55:18.000Z</time></trkpt>
<trkpt lat="47.830951" lon="35.021159"><ele>85.3</ele><time>2026-02-08T06:55:19.000Z</time></trkpt>
<trkpt lat="47.830954" lon="35.02116"><ele>85.3</ele><time>2026-02-08T06:55:20.000Z</time></trkpt>
<trkpt lat="47.830958" lon="35.021163"><ele>85.3</ele><time>2026-02-08T06:55:21.000Z</time></trkpt>
<trkpt lat="47.830962" lon="35.021167"><ele>85.3</ele><time>2026-02-08T06:55:22.000Z</time></trkpt>
<trkpt lat="47.830967" lon="35.021172"><ele>85.3</ele><time>2026-02-08T06:55:23.000Z</time></trkpt>
<trkpt lat="47.830972" lon="35.021175"><ele>85.3</ele><time>2026-02-08T06:55:24.000Z</time></trkpt>
<trkpt lat="47.830978" lon="35.021179"><ele>85.3</ele><time>2026-02-08T06:55:25.000Z</time></trkpt>
<trkpt lat="47.830983" lon="35.02118"><ele>85.3</ele><time>2026-02-08T06:55:26.000Z</time></trkpt>
<trkpt lat="47.830989" lon="35.021179"><ele>85.3</ele><time>2026-02-08T06:55:27.000Z</time></trkpt>
<trkpt lat="47.830995" lon="35.021176"><ele>85.3</ele><time>2026-02-08T06:55:28.000Z</time></trkpt>
<trkpt lat="47.831001" lon="35.021168"><ele>85.3</ele><time>2026-02-08T06:55:29.000Z</time></trkpt>
<trkpt lat="47.831006" lon="35.021158"><ele>85.3</ele><time>2026-02-08T06:55:30.000Z</time></trkpt>
<trkpt lat="47.83101" lon="35.021145"><ele>85.3</ele><time>2026-02-08T06:55:31.000Z</time></trkpt>
<trkpt lat="47.831012" lon="35.021129"><ele>85.3</ele><time>2026-02-08T06:55:32.000Z</time></trkpt>
<trkpt lat="47.831014" lon="35.021113"><ele>85.3</ele><time>2026-02-08T06:55:33.000Z</time></trkpt>
<trkpt lat="47.831015" lon="35.021098"><ele>85.3</ele><time>2026-02-08T06:55:34.000Z</time></trkpt>
<trkpt lat="47.831017" lon="35.021084"><ele>85.3</ele><time>2026-02-08T06:55:35.000Z</time></trkpt>
<trkpt lat="47.831022" lon="35.021073"><ele>85.3</ele><time>2026-02-08T06:55:36.000Z</time></trkpt>
<trkpt lat="47.831029" lon="35.021063"><ele>85.3</ele><time>2026-02-08T06:55:37.000Z</time></trkpt>
<trkpt lat="47.831038" lon="35.021054"><ele>85.3</ele><time>2026-02-08T06:55:38.000Z</time></trkpt>
<trkpt lat="47.831048" lon="35.021045"><ele>85.3</ele><time>2026-02-08T06:55:39.000Z</time></trkpt>
<trkpt lat="47.831057" lon="35.021034"><ele>85.3</ele><time>2026-02-08T06:55:40.000Z</time></trkpt>
<trkpt lat="47.831064" lon="35.02102"><ele>85.3</ele><time>2026-02-08T06:55:41.000Z</time></trkpt>
<trkpt lat="47.831067" lon="35.021005"><ele>85.3</ele><time>2026-02-08T06:55:42.000Z</time></trkpt>
<trkpt lat="47.831065" lon="35.020989"><ele>85.3</ele><time>2026-02-08T06:55:43.000Z</time></trkpt>
<trkpt lat="47.831061" lon="35.020971"><ele>85.3</ele><time>2026-02-08T06:55:44.000Z</time></trkpt>
<trkpt lat="47.831052" lon="35.020952"><ele>85.3</ele><time>2026-02-08T06:55:45.000Z</time></trkpt>
<trkpt lat="47.831042" lon="35.020933"><ele>85.3</ele><time>2026-02-08T06:55:46.000Z</time></trkpt>
<trkpt lat="47.831031" lon="35.020911"><ele>85.3</ele><time>2026-02-08T06:55:47.000Z</time></trkpt>
<trkpt lat="47.831019" lon="35.020888"><ele>85.3</ele><time>2026-02-08T06:55:48.000Z</time></trkpt>
<trkpt lat="47.831007" lon="35.020863"><ele>85.3</ele><time>2026-02-08T06:55:49.000Z</time></trkpt>
<trkpt lat="47.830996" lon="35.020836"><ele>85.3</ele><time>2026-02-08T06:55:50.000Z</time></trkpt>
<trkpt lat="47.830984" lon="35.020807"><ele>85.2</ele><time>2026-02-08T06:55:51.000Z</time></trkpt>
<trkpt lat="47.830973" lon="35.020776"><ele>85.2</ele><time>2026-02-08T06:55:52.000Z</time></trkpt>
<trkpt lat="47.830961" lon="35.020745"><ele>85.2</ele><time>2026-02-08T06:55:53.000Z</time></trkpt>
<trkpt lat="47.83095" lon="35.020714"><ele>85.2</ele><time>2026-02-08T06:55:54.000Z</time></trkpt>
<trkpt lat="47.830938" lon="35.020682"><ele>85.2</ele><time>2026-02-08T06:55:55.000Z</time></trkpt>
<trkpt lat="47.830925" lon="35.020652"><ele>85.2</ele><time>2026-02-08T06:55:56.000Z</time></trkpt>
<trkpt lat="47.830911" lon="35.020621"><ele>85.2</ele><time>2026-02-08T06:55:57.000Z</time></trkpt>
<trkpt lat="47.830897" lon="35.020591"><ele>85.2</ele><time>2026-02-08T06:55:58.000Z</time></trkpt>
<trkpt lat="47.830883" lon="35.020562"><ele>85.2</ele><time>2026-02-08T06:55:59.000Z</time></trkpt>
<trkpt lat="47.830868" lon="35.020533"><ele>85.2</ele><time>2026-02-08T06:56:00.000Z</time></trkpt>
<trkpt lat="47.830854" lon="35.020505"><ele>85.3</ele><time>2026-02-08T06:56:01.000Z</time></trkpt>
<trkpt lat="47.83084" lon="35.020477"><ele>85.3</ele><time>2026-02-08T06:56:02.000Z</time></trkpt>
<trkpt lat="47.830826" lon="35.020449"><ele>85.3</ele><time>2026-02-08T06:56:03.000Z</time></trkpt>
<trkpt lat="47.830812" lon="35.020421"><ele>85.3</ele><time>2026-02-08T06:56:04.000Z</time></trkpt>
<trkpt lat="47.830797" lon="35.020394"><ele>85.3</ele><time>2026-02-08T06:56:05.000Z</time></trkpt>
<trkpt lat="47.83078" lon="35.020371"><ele>85.40000000000001</ele><time>2026-02-08T06:56:06.000Z</time></trkpt>
<trkpt lat="47.830761" lon="35.020353"><ele>85.40000000000001</ele><time>2026-02-08T06:56:07.000Z</time></trkpt>
<trkpt lat="47.830741" lon="35.020343"><ele>85.40000000000001</ele><time>2026-02-08T06:56:08.000Z</time></trkpt>
<trkpt lat="47.830719" lon="35.02034"><ele>85.40000000000001</ele><time>2026-02-08T06:56:09.000Z</time></trkpt>
<trkpt lat="47.830697" lon="35.020344"><ele>85.40000000000001</ele><time>2026-02-08T06:56:10.000Z</time></trkpt>
<trkpt lat="47.830675" lon="35.020354"><ele>86</ele><time>2026-02-08T06:56:11.000Z</time></trkpt>
<trkpt lat="47.830654" lon="35.020369"><ele>86</ele><time>2026-02-08T06:56:12.000Z</time></trkpt>
<trkpt lat="47.830634" lon="35.020385"><ele>86</ele><time>2026-02-08T06:56:13.000Z</time></trkpt>
<trkpt lat="47.830614" lon="35.020403"><ele>86</ele><time>2026-02-08T06:56:14.000Z</time></trkpt>
<trkpt lat="47.830595" lon="35.020421"><ele>86</ele><time>2026-02-08T06:56:15.000Z</time></trkpt>
<trkpt lat="47.830575" lon="35.020439"><ele>86.40000000000001</ele><time>2026-02-08T06:56:16.000Z</time></trkpt>
<trkpt lat="47.830555" lon="35.020458"><ele>86.40000000000001</ele><time>2026-02-08T06:56:17.000Z</time></trkpt>
<trkpt lat="47.830536" lon="35.020476"><ele>86.40000000000001</ele><time>2026-02-08T06:56:18.000Z</time></trkpt>
<trkpt lat="47.830516" lon="35.020495"><ele>86.40000000000001</ele><time>2026-02-08T06:56:19.000Z</time></trkpt>
<trkpt lat="47.830497" lon="35.020515"><ele>86.40000000000001</ele><time>2026-02-08T06:56:20.000Z</time></trkpt>
<trkpt lat="47.830477" lon="35.020536"><ele>86.40000000000001</ele><time>2026-02-08T06:56:21.000Z</time></trkpt>
<trkpt lat="47.830458" lon="35.020557"><ele>86.40000000000001</ele><time>2026-02-08T06:56:22.000Z</time></trkpt>
<trkpt lat="47.830439" lon="35.020578"><ele>86.40000000000001</ele><time>2026-02-08T06:56:23.000Z</time></trkpt>
<trkpt lat="47.830421" lon="35.020602"><ele>86.40000000000001</ele><time>2026-02-08T06:56:24.000Z</time></trkpt>
<trkpt lat="47.830407" lon="35.020627"><ele>86.40000000000001</ele><time>2026-02-08T06:56:25.000Z</time></trkpt>
<trkpt lat="47.830396" lon="35.020655"><ele>86.09999999999999</ele><time>2026-02-08T06:56:26.000Z</time></trkpt>
<trkpt lat="47.830391" lon="35.020685"><ele>86.09999999999999</ele><time>2026-02-08T06:56:27.000Z</time></trkpt>
<trkpt lat="47.830391" lon="35.020717"><ele>86.09999999999999</ele><time>2026-02-08T06:56:28.000Z</time></trkpt>
<trkpt lat="47.830396" lon="35.02075"><ele>86.09999999999999</ele><time>2026-02-08T06:56:29.000Z</time></trkpt>
<trkpt lat="47.830406" lon="35.020784"><ele>86.09999999999999</ele><time>2026-02-08T06:56:30.000Z</time></trkpt>
<trkpt lat="47.830418" lon="35.020817"><ele>85.59999999999999</ele><time>2026-02-08T06:56:31.000Z</time></trkpt>
<trkpt lat="47.830432" lon="35.020849"><ele>85.59999999999999</ele><time>2026-02-08T06:56:32.000Z</time></trkpt>
<trkpt lat="47.830447" lon="35.020882"><ele>85.59999999999999</ele><time>2026-02-08T06:56:33.000Z</time></trkpt>
<trkpt lat="47.830463" lon="35.020914"><ele>85.59999999999999</ele><time>2026-02-08T06:56:34.000Z</time></trkpt>
<trkpt lat="47.830479" lon="35.020945"><ele>85.59999999999999</ele><time>2026-02-08T06:56:35.000Z</time></trkpt>
<trkpt lat="47.830494" lon="35.020973"><ele>85.3</ele><time>2026-02-08T06:56:36.000Z</time></trkpt>
<trkpt lat="47.830508" lon="35.021001"><ele>85.3</ele><time>2026-02-08T06:56:37.000Z</time></trkpt>
<trkpt lat="47.830522" lon="35.021027"><ele>85.3</ele><time>2026-02-08T06:56:38.000Z</time></trkpt>
<trkpt lat="47.830535" lon="35.021051"><ele>85.3</ele><time>2026-02-08T06:56:39.000Z</time></trkpt>
<trkpt lat="47.830548" lon="35.021077"><ele>85.3</ele><time>2026-02-08T06:56:40.000Z</time></trkpt>
<trkpt lat="47.830561" lon="35.021102"><ele>85.09999999999999</ele><time>2026-02-08T06:56:41.000Z</time></trkpt>
<trkpt lat="47.830575" lon="35.021128"><ele>85.09999999999999</ele><time>2026-02-08T06:56:42.000Z</time></trkpt>
<trkpt lat="47.830588" lon="35.021154"><ele>85.09999999999999</ele><time>2026-02-08T06:56:43.000Z</time></trkpt>
<trkpt lat="47.830601" lon="35.021181"><ele>85.09999999999999</ele><time>2026-02-08T06:56:44.000Z</time></trkpt>
<trkpt lat="47.830614" lon="35.021207"><ele>85.09999999999999</ele><time>2026-02-08T06:56:45.000Z</time></trkpt>
<trkpt lat="47.830627" lon="35.021233"><ele>84.8</ele><time>2026-02-08T06:56:46.000Z</time></trkpt>
<trkpt lat="47.830639" lon="35.021259"><ele>84.8</ele><time>2026-02-08T06:56:47.000Z</time></trkpt>
<trkpt lat="47.830651" lon="35.021284"><ele>84.8</ele><time>2026-02-08T06:56:48.000Z</time></trkpt>
<trkpt lat="47.830664" lon="35.021309"><ele>84.8</ele><time>2026-02-08T06:56:49.000Z</time></trkpt>
<trkpt lat="47.830676" lon="35.021334"><ele>84.8</ele><time>2026-02-08T06:56:50.000Z</time></trkpt>
<trkpt lat="47.830688" lon="35.021357"><ele>84.7</ele><time>2026-02-08T06:56:51.000Z</time></trkpt>
<trkpt lat="47.830699" lon="35.02138"><ele>84.7</ele><time>2026-02-08T06:56:52.000Z</time></trkpt>
<trkpt lat="47.83071" lon="35.021402"><ele>84.7</ele><time>2026-02-08T06:56:53.000Z</time></trkpt>
<trkpt lat="47.830721" lon="35.021422"><ele>84.7</ele><time>2026-02-08T06:56:54.000Z</time></trkpt>
<trkpt lat="47.83073" lon="35.02144"><ele>84.7</ele><time>2026-02-08T06:56:55.000Z</time></trkpt>
<trkpt lat="47.830738" lon="35.021456"><ele>84.5</ele><time>2026-02-08T06:56:56.000Z</time></trkpt>
<trkpt lat="47.830746" lon="35.021471"><ele>84.5</ele><time>2026-02-08T06:56:57.000Z</time></trkpt>
<trkpt lat="47.830753" lon="35.021484"><ele>84.5</ele><time>2026-02-08T06:56:58.000Z</time></trkpt>
<trkpt lat="47.830761" lon="35.021496"><ele>84.5</ele><time>2026-02-08T06:56:59.000Z</time></trkpt>
<trkpt lat="47.830767" lon="35.02151"><ele>84.5</ele><time>2026-02-08T06:57:00.000Z</time></trkpt>
<trkpt lat="47.830827" lon="35.021641"><ele>84.2</ele><time>2026-02-08T06:57:36.000Z</time></trkpt>
<trkpt lat="47.830833" lon="35.021653"><ele>84.2</ele><time>2026-02-08T06:57:37.000Z</time></trkpt>
<trkpt lat="47.830843" lon="35.021666"><ele>84.09999999999999</ele><time>2026-02-08T06:57:38.000Z</time></trkpt>
<trkpt lat="47.830852" lon="35.021679"><ele>83.90000000000001</ele><time>2026-02-08T06:57:39.000Z</time></trkpt>
<trkpt lat="47.830861" lon="35.021695"><ele>83.5</ele><time>2026-02-08T06:57:40.000Z</time></trkpt>
<trkpt lat="47.830871" lon="35.021712"><ele>83.40000000000001</ele><time>2026-02-08T06:57:41.000Z</time></trkpt>
<trkpt lat="47.83088" lon="35.021731"><ele>83</ele><time>2026-02-08T06:57:42.000Z</time></trkpt>
<trkpt lat="47.83089" lon="35.021751"><ele>82.90000000000001</ele><time>2026-02-08T06:57:43.000Z</time></trkpt>
<trkpt lat="47.830901" lon="35.021771"><ele>82.90000000000001</ele><time>2026-02-08T06:57:44.000Z</time></trkpt>
<trkpt lat="47.830912" lon="35.021792"><ele>82.90000000000001</ele><time>2026-02-08T06:57:45.000Z</time></trkpt>
<trkpt lat="47.830924" lon="35.021812"><ele>82.90000000000001</ele><time>2026-02-08T06:57:46.000Z</time></trkpt>
<trkpt lat="47.830938" lon="35.021833"><ele>82.90000000000001</ele><time>2026-02-08T06:57:47.000Z</time></trkpt>
<trkpt lat="47.830951" lon="35.021855"><ele>82.90000000000001</ele><time>2026-02-08T06:57:48.000Z</time></trkpt>
<trkpt lat="47.830966" lon="35.021877"><ele>82.90000000000001</ele><time>2026-02-08T06:57:49.000Z</time></trkpt>
<trkpt lat="47.830982" lon="35.021901"><ele>82.90000000000001</ele><time>2026-02-08T06:57:50.000Z</time></trkpt>
<trkpt lat="47.830999" lon="35.021925"><ele>82.90000000000001</ele><time>2026-02-08T06:57:51.000Z</time></trkpt>
<trkpt lat="47.831015" lon="35.02195"><ele>82.90000000000001</ele><time>2026-02-08T06:57:52.000Z</time></trkpt>
<trkpt lat="47.831032" lon="35.021974"><ele>82.90000000000001</ele><time>2026-02-08T06:57:53.000Z</time></trkpt>
<trkpt lat="47.831049" lon="35.021998"><ele>82.90000000000001</ele><time>2026-02-08T06:57:54.000Z</time></trkpt>
<trkpt lat="47.831064" lon="35.022022"><ele>82.90000000000001</ele><time>2026-02-08T06:57:55.000Z</time></trkpt>
<trkpt lat="47.831079" lon="35.022046"><ele>82.90000000000001</ele><time>2026-02-08T06:57:56.000Z</time></trkpt>
<trkpt lat="47.831094" lon="35.022071"><ele>82.90000000000001</ele><time>2026-02-08T06:57:57.000Z</time></trkpt>
<trkpt lat="47.831108" lon="35.022095"><ele>82.90000000000001</ele><time>2026-02-08T06:57:58.000Z</time></trkpt>
<trkpt lat="47.831123" lon="35.02212"><ele>82.90000000000001</ele><time>2026-02-08T06:57:59.000Z</time></trkpt>
<trkpt lat="47.831138" lon="35.022144"><ele>82.90000000000001</ele><time>2026-02-08T06:58:00.000Z</time></trkpt>
<trkpt lat="47.831153" lon="35.022166"><ele>82.90000000000001</ele><time>2026-02-08T06:58:01.000Z</time></trkpt>
<trkpt lat="47.831167" lon="35.022188"><ele>82.90000000000001</ele><time>2026-02-08T06:58:02.000Z</time></trkpt>
<trkpt lat="47.831182" lon="35.022209"><ele>82.90000000000001</ele><time>2026-02-08T06:58:03.000Z</time></trkpt>
<trkpt lat="47.831198" lon="35.02223"><ele>82.90000000000001</ele><time>2026-02-08T06:58:04.000Z</time></trkpt>
<trkpt lat="47.831214" lon="35.022251"><ele>82.90000000000001</ele><time>2026-02-08T06:58:05.000Z</time></trkpt>
<trkpt lat="47.83123" lon="35.022271"><ele>82.90000000000001</ele><time>2026-02-08T06:58:06.000Z</time></trkpt>
<trkpt lat="47.831248" lon="35.022291"><ele>82.90000000000001</ele><time>2026-02-08T06:58:07.000Z</time></trkpt>
<trkpt lat="47.831265" lon="35.022309"><ele>82.90000000000001</ele><time>2026-02-08T06:58:08.000Z</time></trkpt>
<trkpt lat="47.831282" lon="35.022325"><ele>82.90000000000001</ele><time>2026-02-08T06:58:09.000Z</time></trkpt>
<trkpt lat="47.831299" lon="35.022342"><ele>82.90000000000001</ele><time>2026-02-08T06:58:10.000Z</time></trkpt>
<trkpt lat="47.831316" lon="35.022357"><ele>82.90000000000001</ele><time>2026-02-08T06:58:11.000Z</time></trkpt>
<trkpt lat="47.831332" lon="35.022373"><ele>82.90000000000001</ele><time>2026-02-08T06:58:12.000Z</time></trkpt>
<trkpt lat="47.831349" lon="35.022389"><ele>82.90000000000001</ele><time>2026-02-08T06:58:13.000Z</time></trkpt>
<trkpt lat="47.831367" lon="35.022405"><ele>82.90000000000001</ele><time>2026-02-08T06:58:14.000Z</time></trkpt>
<trkpt lat="47.831385" lon="35.022422"><ele>82.90000000000001</ele><time>2026-02-08T06:58:15.000Z</time></trkpt>
<trkpt lat="47.831405" lon="35.022439"><ele>82.90000000000001</ele><time>2026-02-08T06:58:16.000Z</time></trkpt>
<trkpt lat="47.831424" lon="35.022455"><ele>82.90000000000001</ele><time>2026-02-08T06:58:17.000Z</time></trkpt>
<trkpt lat="47.831445" lon="35.022472"><ele>82.90000000000001</ele><time>2026-02-08T06:58:18.000Z</time></trkpt>
<trkpt lat="47.831465" lon="35.022487"><ele>82.90000000000001</ele><time>2026-02-08T06:58:19.000Z</time></trkpt>
<trkpt lat="47.831485" lon="35.022501"><ele>82.7</ele><time>2026-02-08T06:58:20.000Z</time></trkpt>
<trkpt lat="47.831506" lon="35.022515"><ele>82.7</ele><time>2026-02-08T06:58:21.000Z</time></trkpt>
<trkpt lat="47.831527" lon="35.022527"><ele>82.7</ele><time>2026-02-08T06:58:22.000Z</time></trkpt>
<trkpt lat="47.831548" lon="35.022539"><ele>82.7</ele><time>2026-02-08T06:58:23.000Z</time></trkpt>
<trkpt lat="47.831569" lon="35.02255"><ele>82.7</ele><time>2026-02-08T06:58:24.000Z</time></trkpt>
<trkpt lat="47.831591" lon="35.02256"><ele>82.3</ele><time>2026-02-08T06:58:25.000Z</time></trkpt>
<trkpt lat="47.831613" lon="35.022569"><ele>82.3</ele><time>2026-02-08T06:58:26.000Z</time></trkpt>
<trkpt lat="47.831633" lon="35.022578"><ele>82.3</ele><time>2026-02-08T06:58:27.000Z</time></trkpt>
<trkpt lat="47.831654" lon="35.022587"><ele>82.3</ele><time>2026-02-08T06:58:28.000Z</time></trkpt>
<trkpt lat="47.831673" lon="35.022596"><ele>82.3</ele><time>2026-02-08T06:58:29.000Z</time></trkpt>
<trkpt lat="47.831691" lon="35.022604"><ele>82.2</ele><time>2026-02-08T06:58:30.000Z</time></trkpt>
<trkpt lat="47.831709" lon="35.022612"><ele>82.2</ele><time>2026-02-08T06:58:31.000Z</time></trkpt>
<trkpt lat="47.831728" lon="35.022622"><ele>82.2</ele><time>2026-02-08T06:58:32.000Z</time></trkpt>
<trkpt lat="47.831746" lon="35.022633"><ele>82.2</ele><time>2026-02-08T06:58:33.000Z</time></trkpt>
<trkpt lat="47.831766" lon="35.022646"><ele>82.2</ele><time>2026-02-08T06:58:34.000Z</time></trkpt>
<trkpt lat="47.831785" lon="35.02266"><ele>82</ele><time>2026-02-08T06:58:35.000Z</time></trkpt>
<trkpt lat="47.831805" lon="35.022675"><ele>82</ele><time>2026-02-08T06:58:36.000Z</time></trkpt>
<trkpt lat="47.831825" lon="35.02269"><ele>82</ele><time>2026-02-08T06:58:37.000Z</time></trkpt>
<trkpt lat="47.831846" lon="35.022702"><ele>82</ele><time>2026-02-08T06:58:38.000Z</time></trkpt>
<trkpt lat="47.831867" lon="35.022713"><ele>82</ele><time>2026-02-08T06:58:39.000Z</time></trkpt>
<trkpt lat="47.831889" lon="35.022722"><ele>81.90000000000001</ele><time>2026-02-08T06:58:40.000Z</time></trkpt>
<trkpt lat="47.83191" lon="35.022731"><ele>81.90000000000001</ele><time>2026-02-08T06:58:41.000Z</time></trkpt>
<trkpt lat="47.831931" lon="35.02274"><ele>81.90000000000001</ele><time>2026-02-08T06:58:42.000Z</time></trkpt>
<trkpt lat="47.831952" lon="35.022749"><ele>81.90000000000001</ele><time>2026-02-08T06:58:43.000Z</time></trkpt>
<trkpt lat="47.831972" lon="35.022759"><ele>81.90000000000001</ele><time>2026-02-08T06:58:44.000Z</time></trkpt>
<trkpt lat="47.831992" lon="35.022769"><ele>81.7</ele><time>2026-02-08T06:58:45.000Z</time></trkpt>
<trkpt lat="47.832012" lon="35.022779"><ele>81.7</ele><time>2026-02-08T06:58:46.000Z</time></trkpt>
<trkpt lat="47.832032" lon="35.022789"><ele>81.7</ele><time>2026-02-08T06:58:47.000Z</time></trkpt>
<trkpt lat="47.832052" lon="35.0228"><ele>81.7</ele><time>2026-02-08T06:58:48.000Z</time></trkpt>
<trkpt lat="47.832072" lon="35.022811"><ele>81.7</ele><time>2026-02-08T06:58:49.000Z</time></trkpt>
<trkpt lat="47.832092" lon="35.022822"><ele>81.2</ele><time>2026-02-08T06:58:50.000Z</time></trkpt>
<trkpt lat="47.832113" lon="35.022834"><ele>81.2</ele><time>2026-02-08T06:58:51.000Z</time></trkpt>
<trkpt lat="47.832133" lon="35.022847"><ele>81.2</ele><time>2026-02-08T06:58:52.000Z</time></trkpt>
<trkpt lat="47.832153" lon="35.02286"><ele>81.2</ele><time>2026-02-08T06:58:53.000Z</time></trkpt>
<trkpt lat="47.832174" lon="35.022873"><ele>81.2</ele><time>2026-02-08T06:58:54.000Z</time></trkpt>
<trkpt lat="47.832195" lon="35.022886"><ele>80.8</ele><time>2026-02-08T06:58:55.000Z</time></trkpt>
<trkpt lat="47.832216" lon="35.022899"><ele>80.8</ele><time>2026-02-08T06:58:56.000Z</time></trkpt>
<trkpt lat="47.832238" lon="35.022912"><ele>80.8</ele><time>2026-02-08T06:58:57.000Z</time></trkpt>
<trkpt lat="47.83226" lon="35.022923"><ele>80.8</ele><time>2026-02-08T06:58:58.000Z</time></trkpt>
<trkpt lat="47.832282" lon="35.022935"><ele>80.8</ele><time>2026-02-08T06:58:59.000Z</time></trkpt>
<trkpt lat="47.832305" lon="35.022946"><ele>80.7</ele><time>2026-02-08T06:59:00.000Z</time></trkpt>
<trkpt lat="47.832327" lon="35.022957"><ele>80.7</ele><time>2026-02-08T06:59:01.000Z</time></trkpt>
<trkpt lat="47.83235" lon="35.022968"><ele>80.7</ele><time>2026-02-08T06:59:02.000Z</time></trkpt>
<trkpt lat="47.832372" lon="35.022978"><ele>80.7</ele><time>2026-02-08T06:59:03.000Z</time></trkpt>
<trkpt lat="47.832394" lon="35.022989"><ele>80.7</ele><time>2026-02-08T06:59:04.000Z</time></trkpt>
<trkpt lat="47.832414" lon="35.022999"><ele>80.3</ele><time>2026-02-08T06:59:05.000Z</time></trkpt>
<trkpt lat="47.832434" lon="35.023009"><ele>80.3</ele><time>2026-02-08T06:59:06.000Z</time></trkpt>
<trkpt lat="47.832454" lon="35.023019"><ele>80.3</ele><time>2026-02-08T06:59:07.000Z</time></trkpt>
<trkpt lat="47.832473" lon="35.023029"><ele>80.3</ele><time>2026-02-08T06:59:08.000Z</time></trkpt>
<trkpt lat="47.832493" lon="35.023039"><ele>80.3</ele><time>2026-02-08T06:59:09.000Z</time></trkpt>
<trkpt lat="47.832513" lon="35.023049"><ele>79.90000000000001</ele><time>2026-02-08T06:59:10.000Z</time></trkpt>
<trkpt lat="47.832533" lon="35.02306"><ele>79.90000000000001</ele><time>2026-02-08T06:59:11.000Z</time></trkpt>
<trkpt lat="47.832554" lon="35.023071"><ele>79.90000000000001</ele><time>2026-02-08T06:59:12.000Z</time></trkpt>
<trkpt lat="47.832575" lon="35.023082"><ele>79.90000000000001</ele><time>2026-02-08T06:59:13.000Z</time></trkpt>
<trkpt lat="47.832596" lon="35.023094"><ele>79.90000000000001</ele><time>2026-02-08T06:59:14.000Z</time></trkpt>
<trkpt lat="47.832618" lon="35.023106"><ele>79.7</ele><time>2026-02-08T06:59:15.000Z</time></trkpt>
<trkpt lat="47.832639" lon="35.023117"><ele>79.7</ele><time>2026-02-08T06:59:16.000Z</time></trkpt>
<trkpt lat="47.832661" lon="35.023128"><ele>79.7</ele><time>2026-02-08T06:59:17.000Z</time></trkpt>
<trkpt lat="47.832683" lon="35.023139"><ele>79.7</ele><time>2026-02-08T06:59:18.000Z</time></trkpt>
<trkpt lat="47.832704" lon="35.023151"><ele>79.7</ele><time>2026-02-08T06:59:19.000Z</time></trkpt>
<trkpt lat="47.832725" lon="35.023165"><ele>79.2</ele><time>2026-02-08T06:59:20.000Z</time></trkpt>
<trkpt lat="47.832747" lon="35.02318"><ele>79.2</ele><time>2026-02-08T06:59:21.000Z</time></trkpt>
<trkpt lat="47.832768" lon="35.023194"><ele>79.2</ele><time>2026-02-08T06:59:22.000Z</time></trkpt>
<trkpt lat="47.832789" lon="35.023208"><ele>79.2</ele><time>2026-02-08T06:59:23.000Z</time></trkpt>
<trkpt lat="47.83281" lon="35.023221"><ele>79.2</ele><time>2026-02-08T06:59:24.000Z</time></trkpt>
<trkpt lat="47.832831" lon="35.023233"><ele>78.8</ele><time>2026-02-08T06:59:25.000Z</time></trkpt>
<trkpt lat="47.832853" lon="35.023244"><ele>78.8</ele><time>2026-02-08T06:59:26.000Z</time></trkpt>
<trkpt lat="47.832875" lon="35.023255"><ele>78.8</ele><time>2026-02-08T06:59:27.000Z</time></trkpt>
<trkpt lat="47.832897" lon="35.023267"><ele>78.8</ele><time>2026-02-08T06:59:28.000Z</time></trkpt>
<trkpt lat="47.832919" lon="35.023278"><ele>78.8</ele><time>2026-02-08T06:59:29.000Z</time></trkpt>
<trkpt lat="47.832941" lon="35.02329"><ele>78.5</ele><time>2026-02-08T06:59:30.000Z</time></trkpt>
<trkpt lat="47.832962" lon="35.023302"><ele>78.5</ele><time>2026-02-08T06:59:31.000Z</time></trkpt>
<trkpt lat="47.832983" lon="35.023314"><ele>78.5</ele><time>2026-02-08T06:59:32.000Z</time></trkpt>
<trkpt lat="47.833004" lon="35.023326"><ele>78.5</ele><time>2026-02-08T06:59:33.000Z</time></trkpt>
<trkpt lat="47.833024" lon="35.023338"><ele>78.5</ele><time>2026-02-08T06:59:34.000Z</time></trkpt>
<trkpt lat="47.833046" lon="35.023349"><ele>77.90000000000001</ele><time>2026-02-08T06:59:35.000Z</time></trkpt>
<trkpt lat="47.833067" lon="35.023361"><ele>77.90000000000001</ele><time>2026-02-08T06:59:36.000Z</time></trkpt>
<trkpt lat="47.833089" lon="35.023373"><ele>77.90000000000001</ele><time>2026-02-08T06:59:37.000Z</time></trkpt>
<trkpt lat="47.83311" lon="35.023385"><ele>77.90000000000001</ele><time>2026-02-08T06:59:38.000Z</time></trkpt>
<trkpt lat="47.833132" lon="35.023396"><ele>77.90000000000001</ele><time>2026-02-08T06:59:39.000Z</time></trkpt>
<trkpt lat="47.833154" lon="35.023406"><ele>77.5</ele><time>2026-02-08T06:59:40.000Z</time></trkpt>
<trkpt lat="47.833175" lon="35.023414"><ele>77.5</ele><time>2026-02-08T06:59:41.000Z</time></trkpt>
<trkpt lat="47.833197" lon="35.023416"><ele>77.5</ele><time>2026-02-08T06:59:42.000Z</time></trkpt>
<trkpt lat="47.833218" lon="35.023413"><ele>77.5</ele><time>2026-02-08T06:59:43.000Z</time></trkpt>
<trkpt lat="47.833237" lon="35.023401"><ele>77.5</ele><time>2026-02-08T06:59:44.000Z</time></trkpt>
<trkpt lat="47.833253" lon="35.023383"><ele>77.3</ele><time>2026-02-08T06:59:45.000Z</time></trkpt>
<trkpt lat="47.833267" lon="35.023359"><ele>77.3</ele><time>2026-02-08T06:59:46.000Z</time></trkpt>
<trkpt lat="47.833279" lon="35.023332"><ele>77.3</ele><time>2026-02-08T06:59:47.000Z</time></trkpt>
<trkpt lat="47.833289" lon="35.023303"><ele>77.3</ele><time>2026-02-08T06:59:48.000Z</time></trkpt>
<trkpt lat="47.833298" lon="35.023274"><ele>77.3</ele><time>2026-02-08T06:59:49.000Z</time></trkpt>
<trkpt lat="47.833307" lon="35.023245"><ele>77.09999999999999</ele><time>2026-02-08T06:59:50.000Z</time></trkpt>
<trkpt lat="47.833316" lon="35.023216"><ele>77.09999999999999</ele><time>2026-02-08T06:59:51.000Z</time></trkpt>
<trkpt lat="47.833325" lon="35.023186"><ele>77.09999999999999</ele><time>2026-02-08T06:59:52.000Z</time></trkpt>
<trkpt lat="47.833334" lon="35.023155"><ele>77.09999999999999</ele><time>2026-02-08T06:59:53.000Z</time></trkpt>
<trkpt lat="47.833343" lon="35.023125"><ele>77.09999999999999</ele><time>2026-02-08T06:59:54.000Z</time></trkpt>
<trkpt lat="47.833351" lon="35.023095"><ele>77</ele><time>2026-02-08T06:59:55.000Z</time></trkpt>
<trkpt lat="47.83336" lon="35.023064"><ele>77</ele><time>2026-02-08T06:59:56.000Z</time></trkpt>
<trkpt lat="47.833369" lon="35.023034"><ele>77</ele><time>2026-02-08T06:59:57.000Z</time></trkpt>
<trkpt lat="47.833377" lon="35.023005"><ele>77</ele><time>2026-02-08T06:59:58.000Z</time></trkpt>
<trkpt lat="47.833386" lon="35.022975"><ele>77</ele><time>2026-02-08T06:59:59.000Z</time></trkpt>
<trkpt lat="47.833394" lon="35.022945"><ele>77.09999999999999</ele><time>2026-02-08T07:00:00.000Z</time></trkpt>
<trkpt lat="47.833401" lon="35.022915"><ele>77.09999999999999</ele><time>2026-02-08T07:00:01.000Z</time></trkpt>
<trkpt lat="47.833409" lon="35.022885"><ele>77.09999999999999</ele><time>2026-02-08T07:00:02.000Z</time></trkpt>
<trkpt lat="47.833416" lon="35.022854"><ele>77.09999999999999</ele><time>2026-02-08T07:00:03.000Z</time></trkpt>
<trkpt lat="47.833423" lon="35.022824"><ele>77.09999999999999</ele><time>2026-02-08T07:00:04.000Z</time></trkpt>
<trkpt lat="47.83343" lon="35.022793"><ele>77.5</ele><time>2026-02-08T07:00:05.000Z</time></trkpt>
<trkpt lat="47.833438" lon="35.022762"><ele>77.5</ele><time>2026-02-08T07:00:06.000Z</time></trkpt>
<trkpt lat="47.833445" lon="35.022732"><ele>77.5</ele><time>2026-02-08T07:00:07.000Z</time></trkpt>
<trkpt lat="47.833452" lon="35.022703"><ele>77.5</ele><time>2026-02-08T07:00:08.000Z</time></trkpt>
<trkpt lat="47.833459" lon="35.022673"><ele>77.5</ele><time>2026-02-08T07:00:09.000Z</time></trkpt>
<trkpt lat="47.833467" lon="35.022643"><ele>78.09999999999999</ele><time>2026-02-08T07:00:10.000Z</time></trkpt>
<trkpt lat="47.833474" lon="35.022614"><ele>78.09999999999999</ele><time>2026-02-08T07:00:11.000Z</time></trkpt>
<trkpt lat="47.833482" lon="35.022583"><ele>78.09999999999999</ele><time>2026-02-08T07:00:12.000Z</time></trkpt>
<trkpt lat="47.83349" lon="35.022552"><ele>78.09999999999999</ele><time>2026-02-08T07:00:13.000Z</time></trkpt>
<trkpt lat="47.833498" lon="35.022522"><ele>78.09999999999999</ele><time>2026-02-08T07:00:14.000Z</time></trkpt>
<trkpt lat="47.833507" lon="35.02249"><ele>78.40000000000001</ele><time>2026-02-08T07:00:15.000Z</time></trkpt>
<trkpt lat="47.833515" lon="35.022458"><ele>78.40000000000001</ele><time>2026-02-08T07:00:16.000Z</time></trkpt>
<trkpt lat="47.833523" lon="35.022426"><ele>78.40000000000001</ele><time>2026-02-08T07:00:17.000Z</time></trkpt>
<trkpt lat="47.83353" lon="35.022395"><ele>78.40000000000001</ele><time>2026-02-08T07:00:18.000Z</time></trkpt>
<trkpt lat="47.833538" lon="35.022363"><ele>78.40000000000001</ele><time>2026-02-08T07:00:19.000Z</time></trkpt>
<trkpt lat="47.833545" lon="35.022331"><ele>79.09999999999999</ele><time>2026-02-08T07:00:20.000Z</time></trkpt>
<trkpt lat="47.833552" lon="35.0223"><ele>79.09999999999999</ele><time>2026-02-08T07:00:21.000Z</time></trkpt>
<trkpt lat="47.83356" lon="35.02227"><ele>79.09999999999999</ele><time>2026-02-08T07:00:22.000Z</time></trkpt>
<trkpt lat="47.833568" lon="35.022239"><ele>79.09999999999999</ele><time>2026-02-08T07:00:23.000Z</time></trkpt>
<trkpt lat="47.833576" lon="35.022209"><ele>79.09999999999999</ele><time>2026-02-08T07:00:24.000Z</time></trkpt>
<trkpt lat="47.833585" lon="35.02218"><ele>79.7</ele><time>2026-02-08T07:00:25.000Z</time></trkpt>
<trkpt lat="47.833593" lon="35.022151"><ele>79.7</ele><time>2026-02-08T07:00:26.000Z</time></trkpt>
<trkpt lat="47.833602" lon="35.022122"><ele>79.7</ele><time>2026-02-08T07:00:27.000Z</time></trkpt>
<trkpt lat="47.83361" lon="35.022093"><ele>79.7</ele><time>2026-02-08T07:00:28.000Z</time></trkpt>
<trkpt lat="47.833619" lon="35.022063"><ele>79.7</ele><time>2026-02-08T07:00:29.000Z</time></trkpt>
<trkpt lat="47.833627" lon="35.022032"><ele>80.09999999999999</ele><time>2026-02-08T07:00:30.000Z</time></trkpt>
<trkpt lat="47.833636" lon="35.022001"><ele>80.09999999999999</ele><time>2026-02-08T07:00:31.000Z</time></trkpt>
<trkpt lat="47.833645" lon="35.02197"><ele>80.09999999999999</ele><time>2026-02-08T07:00:32.000Z</time></trkpt>
<trkpt lat="47.833655" lon="35.021937"><ele>80.09999999999999</ele><time>2026-02-08T07:00:33.000Z</time></trkpt>
<trkpt lat="47.833664" lon="35.021906"><ele>80.09999999999999</ele><time>2026-02-08T07:00:34.000Z</time></trkpt>
<trkpt lat="47.833673" lon="35.021874"><ele>80.7</ele><time>2026-02-08T07:00:35.000Z</time></trkpt>
<trkpt lat="47.833681" lon="35.021844"><ele>80.7</ele><time>2026-02-08T07:00:36.000Z</time></trkpt>
<trkpt lat="47.83369" lon="35.021815"><ele>80.7</ele><time>2026-02-08T07:00:37.000Z</time></trkpt>
<trkpt lat="47.833698" lon="35.021786"><ele>80.7</ele><time>2026-02-08T07:00:38.000Z</time></trkpt>
<trkpt lat="47.833706" lon="35.021756"><ele>80.7</ele><time>2026-02-08T07:00:39.000Z</time></trkpt>
<trkpt lat="47.833714" lon="35.021726"><ele>81.2</ele><time>2026-02-08T07:00:40.000Z</time></trkpt>
<trkpt lat="47.833722" lon="35.021695"><ele>81.2</ele><time>2026-02-08T07:00:41.000Z</time></trkpt>
<trkpt lat="47.83373" lon="35.021664"><ele>81.2</ele><time>2026-02-08T07:00:42.000Z</time></trkpt>
<trkpt lat="47.833738" lon="35.021634"><ele>81.2</ele><time>2026-02-08T07:00:43.000Z</time></trkpt>
<trkpt lat="47.833745" lon="35.021603"><ele>81.2</ele><time>2026-02-08T07:00:44.000Z</time></trkpt>
<trkpt lat="47.833753" lon="35.021573"><ele>81.5</ele><time>2026-02-08T07:00:45.000Z</time></trkpt>
<trkpt lat="47.83376" lon="35.021542"><ele>81.5</ele><time>2026-02-08T07:00:46.000Z</time></trkpt>
<trkpt lat="47.833767" lon="35.021511"><ele>81.5</ele><time>2026-02-08T07:00:47.000Z</time></trkpt>
<trkpt lat="47.833774" lon="35.021478"><ele>81.5</ele><time>2026-02-08T07:00:48.000Z</time></trkpt>
<trkpt lat="47.833781" lon="35.021446"><ele>81.5</ele><time>2026-02-08T07:00:49.000Z</time></trkpt>
<trkpt lat="47.833787" lon="35.021414"><ele>81.90000000000001</ele><time>2026-02-08T07:00:50.000Z</time></trkpt>
<trkpt lat="47.833794" lon="35.021381"><ele>81.90000000000001</ele><time>2026-02-08T07:00:51.000Z</time></trkpt>
<trkpt lat="47.8338" lon="35.021347"><ele>81.90000000000001</ele><time>2026-02-08T07:00:52.000Z</time></trkpt>
<trkpt lat="47.833807" lon="35.021314"><ele>81.90000000000001</ele><time>2026-02-08T07:00:53.000Z</time></trkpt>
<trkpt lat="47.833814" lon="35.021282"><ele>81.90000000000001</ele><time>2026-02-08T07:00:54.000Z</time></trkpt>
<trkpt lat="47.83382" lon="35.02125"><ele>82.3</ele><time>2026-02-08T07:00:55.000Z</time></trkpt>
<trkpt lat="47.833827" lon="35.021218"><ele>82.3</ele><time>2026-02-08T07:00:56.000Z</time></trkpt>
<trkpt lat="47.833834" lon="35.021187"><ele>82.3</ele><time>2026-02-08T07:00:57.000Z</time></trkpt>
<trkpt lat="47.833841" lon="35.021156"><ele>82.3</ele><time>2026-02-08T07:00:58.000Z</time></trkpt>
<trkpt lat="47.833847" lon="35.021124"><ele>82.3</ele><time>2026-02-08T07:00:59.000Z</time></trkpt>
<trkpt lat="47.833854" lon="35.021093"><ele>82.5</ele><time>2026-02-08T07:01:00.000Z</time></trkpt>
<trkpt lat="47.833861" lon="35.021061"><ele>82.5</ele><time>2026-02-08T07:01:01.000Z</time></trkpt>
<trkpt lat="47.833867" lon="35.021029"><ele>82.5</ele><time>2026-02-08T07:01:02.000Z</time></trkpt>
<trkpt lat="47.833874" lon="35.020998"><ele>82.5</ele><time>2026-02-08T07:01:03.000Z</time></trkpt>
<trkpt lat="47.833881" lon="35.020967"><ele>82.5</ele><time>2026-02-08T07:01:04.000Z</time></trkpt>
<trkpt lat="47.833889" lon="35.020935"><ele>82.7</ele><time>2026-02-08T07:01:05.000Z</time></trkpt>
<trkpt lat="47.833897" lon="35.020904"><ele>82.7</ele><time>2026-02-08T07:01:06.000Z</time></trkpt>
<trkpt lat="47.833906" lon="35.020875"><ele>82.7</ele><time>2026-02-08T07:01:07.000Z</time></trkpt>
<trkpt lat="47.833915" lon="35.020845"><ele>82.7</ele><time>2026-02-08T07:01:08.000Z</time></trkpt>
<trkpt lat="47.833925" lon="35.020815"><ele>82.7</ele><time>2026-02-08T07:01:09.000Z</time></trkpt>
<trkpt lat="47.833934" lon="35.020786"><ele>83</ele><time>2026-02-08T07:01:10.000Z</time></trkpt>
<trkpt lat="47.833942" lon="35.020755"><ele>83</ele><time>2026-02-08T07:01:11.000Z</time></trkpt>
<trkpt lat="47.833951" lon="35.020724"><ele>83</ele><time>2026-02-08T07:01:12.000Z</time></trkpt>
<trkpt lat="47.833958" lon="35.020692"><ele>83</ele><time>2026-02-08T07:01:13.000Z</time></trkpt>
<trkpt lat="47.833966" lon="35.020659"><ele>83</ele><time>2026-02-08T07:01:14.000Z</time></trkpt>
<trkpt lat="47.833973" lon="35.020625"><ele>83.2</ele><time>2026-02-08T07:01:15.000Z</time></trkpt>
<trkpt lat="47.833981" lon="35.020592"><ele>83.2</ele><time>2026-02-08T07:01:16.000Z</time></trkpt>
<trkpt lat="47.833988" lon="35.020559"><ele>83.2</ele><time>2026-02-08T07:01:17.000Z</time></trkpt>
<trkpt lat="47.833996" lon="35.020525"><ele>83.2</ele><time>2026-02-08T07:01:18.000Z</time></trkpt>
<trkpt lat="47.834004" lon="35.020492"><ele>83.2</ele><time>2026-02-08T07:01:19.000Z</time></trkpt>
<trkpt lat="47.834012" lon="35.02046"><ele>83.8</ele><time>2026-02-08T07:01:20.000Z</time></trkpt>
<trkpt lat="47.834021" lon="35.020428"><ele>83.8</ele><time>2026-02-08T07:01:21.000Z</time></trkpt>
<trkpt lat="47.83403" lon="35.020396"><ele>83.8</ele><time>2026-02-08T07:01:22.000Z</time></trkpt>
<trkpt lat="47.834038" lon="35.020364"><ele>83.8</ele><time>2026-02-08T07:01:23.000Z</time></trkpt>
<trkpt lat="47.834046" lon="35.020331"><ele>83.8</ele><time>2026-02-08T07:01:24.000Z</time></trkpt>
<trkpt lat="47.834054" lon="35.020298"><ele>84.2</ele><time>2026-02-08T07:01:25.000Z</time></trkpt>
<trkpt lat="47.834061" lon="35.020265"><ele>84.2</ele><time>2026-02-08T07:01:26.000Z</time></trkpt>
<trkpt lat="47.834068" lon="35.020233"><ele>84.2</ele><time>2026-02-08T07:01:27.000Z</time></trkpt>
<trkpt lat="47.834075" lon="35.0202"><ele>84.2</ele><time>2026-02-08T07:01:28.000Z</time></trkpt>
<trkpt lat="47.834081" lon="35.020167"><ele>84.2</ele><time>2026-02-08T07:01:29.000Z</time></trkpt>
<trkpt lat="47.834088" lon="35.020135"><ele>84.40000000000001</ele><time>2026-02-08T07:01:30.000Z</time></trkpt>
<trkpt lat="47.834095" lon="35.020103"><ele>84.40000000000001</ele><time>2026-02-08T07:01:31.000Z</time></trkpt>
<trkpt lat="47.834103" lon="35.020072"><ele>84.40000000000001</ele><time>2026-02-08T07:01:32.000Z</time></trkpt>
<trkpt lat="47.834111" lon="35.020041"><ele>84.40000000000001</ele><time>2026-02-08T07:01:33.000Z</time></trkpt>
<trkpt lat="47.83412" lon="35.02001"><ele>84.40000000000001</ele><time>2026-02-08T07:01:34.000Z</time></trkpt>
<trkpt lat="47.83413" lon="35.019979"><ele>84.8</ele><time>2026-02-08T07:01:35.000Z</time></trkpt>
<trkpt lat="47.834138" lon="35.019948"><ele>84.8</ele><time>2026-02-08T07:01:36.000Z</time></trkpt>
<trkpt lat="47.834146" lon="35.019917"><ele>84.8</ele><time>2026-02-08T07:01:37.000Z</time></trkpt>
<trkpt lat="47.834153" lon="35.019886"><ele>84.8</ele><time>2026-02-08T07:01:38.000Z</time></trkpt>
<trkpt lat="47.83416" lon="35.019854"><ele>84.8</ele><time>2026-02-08T07:01:39.000Z</time></trkpt>
<trkpt lat="47.834166" lon="35.019823"><ele>85.09999999999999</ele><time>2026-02-08T07:01:40.000Z</time></trkpt>
<trkpt lat="47.834173" lon="35.019791"><ele>85.09999999999999</ele><time>2026-02-08T07:01:41.000Z</time></trkpt>
<trkpt lat="47.83418" lon="35.019759"><ele>85.09999999999999</ele><time>2026-02-08T07:01:42.000Z</time></trkpt>
<trkpt lat="47.834188" lon="35.019728"><ele>85.09999999999999</ele><time>2026-02-08T07:01:43.000Z</time></trkpt>
<trkpt lat="47.834196" lon="35.019696"><ele>85.09999999999999</ele><time>2026-02-08T07:01:44.000Z</time></trkpt>
<trkpt lat="47.834205" lon="35.019664"><ele>85.3</ele><time>2026-02-08T07:01:45.000Z</time></trkpt>
<trkpt lat="47.834213" lon="35.019632"><ele>85.3</ele><time>2026-02-08T07:01:46.000Z</time></trkpt>
<trkpt lat="47.834222" lon="35.0196"><ele>85.3</ele><time>2026-02-08T07:01:47.000Z</time></trkpt>
<trkpt lat="47.834231" lon="35.019568"><ele>85.3</ele><time>2026-02-08T07:01:48.000Z</time></trkpt>
<trkpt lat="47.83424" lon="35.019537"><ele>85.3</ele><time>2026-02-08T07:01:49.000Z</time></trkpt>
<trkpt lat="47.834249" lon="35.019506"><ele>85.5</ele><time>2026-02-08T07:01:50.000Z</time></trkpt>
<trkpt lat="47.834257" lon="35.019475"><ele>85.5</ele><time>2026-02-08T07:01:51.000Z</time></trkpt>
<trkpt lat="47.834266" lon="35.019444"><ele>85.5</ele><time>2026-02-08T07:01:52.000Z</time></trkpt>
<trkpt lat="47.834275" lon="35.019414"><ele>85.5</ele><time>2026-02-08T07:01:53.000Z</time></trkpt>
<trkpt lat="47.834283" lon="35.019383"><ele>85.5</ele><time>2026-02-08T07:01:54.000Z</time></trkpt>
<trkpt lat="47.834291" lon="35.019351"><ele>85.59999999999999</ele><time>2026-02-08T07:01:55.000Z</time></trkpt>
<trkpt lat="47.834299" lon="35.01932"><ele>85.59999999999999</ele><time>2026-02-08T07:01:56.000Z</time></trkpt>
<trkpt lat="47.834306" lon="35.019289"><ele>85.59999999999999</ele><time>2026-02-08T07:01:57.000Z</time></trkpt>
<trkpt lat="47.834313" lon="35.019258"><ele>85.59999999999999</ele><time>2026-02-08T07:01:58.000Z</time></trkpt>
<trkpt lat="47.83432" lon="35.019226"><ele>85.59999999999999</ele><time>2026-02-08T07:01:59.000Z</time></trkpt>
<trkpt lat="47.834326" lon="35.019195"><ele>85.7</ele><time>2026-02-08T07:02:00.000Z</time></trkpt>
<trkpt lat="47.834334" lon="35.019163"><ele>85.7</ele><time>2026-02-08T07:02:01.000Z</time></trkpt>
<trkpt lat="47.834341" lon="35.019131"><ele>85.7</ele><time>2026-02-08T07:02:02.000Z</time></trkpt>
<trkpt lat="47.83435" lon="35.0191"><ele>85.7</ele><time>2026-02-08T07:02:03.000Z</time></trkpt>
<trkpt lat="47.834359" lon="35.019069"><ele>85.7</ele><time>2026-02-08T07:02:04.000Z</time></trkpt>
<trkpt lat="47.834368" lon="35.019037"><ele>86</ele><time>2026-02-08T07:02:05.000Z</time></trkpt>
<trkpt lat="47.834378" lon="35.019006"><ele>86</ele><time>2026-02-08T07:02:06.000Z</time></trkpt>
<trkpt lat="47.834388" lon="35.018975"><ele>86</ele><time>2026-02-08T07:02:07.000Z</time></trkpt>
<trkpt lat="47.834399" lon="35.018944"><ele>86</ele><time>2026-02-08T07:02:08.000Z</time></trkpt>
<trkpt lat="47.834409" lon="35.018913"><ele>86</ele><time>2026-02-08T07:02:09.000Z</time></trkpt>
<trkpt lat="47.834418" lon="35.018882"><ele>86.2</ele><time>2026-02-08T07:02:10.000Z</time></trkpt>
<trkpt lat="47.834428" lon="35.018851"><ele>86.2</ele><time>2026-02-08T07:02:11.000Z</time></trkpt>
<trkpt lat="47.834437" lon="35.01882"><ele>86.2</ele><time>2026-02-08T07:02:12.000Z</time></trkpt>
<trkpt lat="47.834446" lon="35.018788"><ele>86.2</ele><time>2026-02-08T07:02:13.000Z</time></trkpt>
<trkpt lat="47.834454" lon="35.018756"><ele>86.2</ele><time>2026-02-08T07:02:14.000Z</time></trkpt>
<trkpt lat="47.834461" lon="35.018722"><ele>86.3</ele><time>2026-02-08T07:02:15.000Z</time></trkpt>
<trkpt lat="47.834467" lon="35.018689"><ele>86.3</ele><time>2026-02-08T07:02:16.000Z</time></trkpt>
<trkpt lat="47.834472" lon="35.018654"><ele>86.3</ele><time>2026-02-08T07:02:17.000Z</time></trkpt>
<trkpt lat="47.834476" lon="35.018619"><ele>86.3</ele><time>2026-02-08T07:02:18.000Z</time></trkpt>
<trkpt lat="47.83448" lon="35.018585"><ele>86.3</ele><time>2026-02-08T07:02:19.000Z</time></trkpt>
<trkpt lat="47.834484" lon="35.01855"><ele>86.3</ele><time>2026-02-08T07:02:20.000Z</time></trkpt>
<trkpt lat="47.834488" lon="35.018516"><ele>86.3</ele><time>2026-02-08T07:02:21.000Z</time></trkpt>
<trkpt lat="47.834494" lon="35.018483"><ele>86.3</ele><time>2026-02-08T07:02:22.000Z</time></trkpt>
<trkpt lat="47.8345" lon="35.01845"><ele>86.3</ele><time>2026-02-08T07:02:23.000Z</time></trkpt>
<trkpt lat="47.834507" lon="35.018417"><ele>86.3</ele><time>2026-02-08T07:02:24.000Z</time></trkpt>
<trkpt lat="47.834515" lon="35.018385"><ele>86.2</ele><time>2026-02-08T07:02:25.000Z</time></trkpt>
<trkpt lat="47.834523" lon="35.018354"><ele>86.2</ele><time>2026-02-08T07:02:26.000Z</time></trkpt>
<trkpt lat="47.834531" lon="35.018323"><ele>86.2</ele><time>2026-02-08T07:02:27.000Z</time></trkpt>
<trkpt lat="47.834539" lon="35.018291"><ele>86.2</ele><time>2026-02-08T07:02:28.000Z</time></trkpt>
<trkpt lat="47.834548" lon="35.018261"><ele>86.2</ele><time>2026-02-08T07:02:29.000Z</time></trkpt>
<trkpt lat="47.834557" lon="35.018231"><ele>86.09999999999999</ele><time>2026-02-08T07:02:30.000Z</time></trkpt>
<trkpt lat="47.834566" lon="35.018201"><ele>86.09999999999999</ele><time>2026-02-08T07:02:31.000Z</time></trkpt>
<trkpt lat="47.834576" lon="35.018172"><ele>86.09999999999999</ele><time>2026-02-08T07:02:32.000Z</time></trkpt>
<trkpt lat="47.834586" lon="35.018145"><ele>86.09999999999999</ele><time>2026-02-08T07:02:33.000Z</time></trkpt>
<trkpt lat="47.834595" lon="35.018117"><ele>86.09999999999999</ele><time>2026-02-08T07:02:34.000Z</time></trkpt>
<trkpt lat="47.834604" lon="35.018088"><ele>86</ele><time>2026-02-08T07:02:35.000Z</time></trkpt>
<trkpt lat="47.834612" lon="35.01806"><ele>86</ele><time>2026-02-08T07:02:36.000Z</time></trkpt>
<trkpt lat="47.834617" lon="35.018033"><ele>86</ele><time>2026-02-08T07:02:37.000Z</time></trkpt>
<trkpt lat="47.834618" lon="35.018005"><ele>86</ele><time>2026-02-08T07:02:38.000Z</time></trkpt>
<trkpt lat="47.834616" lon="35.017982"><ele>86</ele><time>2026-02-08T07:02:39.000Z</time></trkpt>
<trkpt lat="47.83461" lon="35.017962"><ele>86</ele><time>2026-02-08T07:02:40.000Z</time></trkpt>
<trkpt lat="47.834602" lon="35.017945"><ele>86</ele><time>2026-02-08T07:02:41.000Z</time></trkpt>
<trkpt lat="47.834592" lon="35.017932"><ele>86</ele><time>2026-02-08T07:02:42.000Z</time></trkpt>
<trkpt lat="47.834581" lon="35.01792"><ele>86</ele><time>2026-02-08T07:02:43.000Z</time></trkpt>
<trkpt lat="47.834571" lon="35.017909"><ele>86</ele><time>2026-02-08T07:02:44.000Z</time></trkpt>
<trkpt lat="47.834561" lon="35.017897"><ele>86</ele><time>2026-02-08T07:02:45.000Z</time></trkpt>
<trkpt lat="47.83455" lon="35.017884"><ele>86</ele><time>2026-02-08T07:02:46.000Z</time></trkpt>
<trkpt lat="47.834538" lon="35.017872"><ele>86</ele><time>2026-02-08T07:02:47.000Z</time></trkpt>
<trkpt lat="47.834525" lon="35.01786"><ele>86</ele><time>2026-02-08T07:02:48.000Z</time></trkpt>
<trkpt lat="47.83451" lon="35.01785"><ele>86</ele><time>2026-02-08T07:02:49.000Z</time></trkpt>
<trkpt lat="47.834493" lon="35.017839"><ele>86.2</ele><time>2026-02-08T07:02:50.000Z</time></trkpt>
<trkpt lat="47.834474" lon="35.017829"><ele>86.2</ele><time>2026-02-08T07:02:51.000Z</time></trkpt>
<trkpt lat="47.834454" lon="35.01782"><ele>86.2</ele><time>2026-02-08T07:02:52.000Z</time></trkpt>
<trkpt lat="47.834432" lon="35.01781"><ele>86.2</ele><time>2026-02-08T07:02:53.000Z</time></trkpt>
<trkpt lat="47.83441" lon="35.017802"><ele>86.2</ele><time>2026-02-08T07:02:54.000Z</time></trkpt>
<trkpt lat="47.834388" lon="35.017795"><ele>86.59999999999999</ele><time>2026-02-08T07:02:55.000Z</time></trkpt>
<trkpt lat="47.834365" lon="35.017791"><ele>86.59999999999999</ele><time>2026-02-08T07:02:56.000Z</time></trkpt>
<trkpt lat="47.834342" lon="35.017791"><ele>86.59999999999999</ele><time>2026-02-08T07:02:57.000Z</time></trkpt>
<trkpt lat="47.83432" lon="35.017795"><ele>86.59999999999999</ele><time>2026-02-08T07:02:58.000Z</time></trkpt>
<trkpt lat="47.834299" lon="35.017803"><ele>86.59999999999999</ele><time>2026-02-08T07:02:59.000Z</time></trkpt>
<trkpt lat="47.834277" lon="35.017814"><ele>86.90000000000001</ele><time>2026-02-08T07:03:00.000Z</time></trkpt>
<trkpt lat="47.834257" lon="35.017827"><ele>86.90000000000001</ele><time>2026-02-08T07:03:01.000Z</time></trkpt>
<trkpt lat="47.834237" lon="35.017843"><ele>86.90000000000001</ele><time>2026-02-08T07:03:02.000Z</time></trkpt>
<trkpt lat="47.834216" lon="35.017859"><ele>86.90000000000001</ele><time>2026-02-08T07:03:03.000Z</time></trkpt>
<trkpt lat="47.834196" lon="35.017876"><ele>86.90000000000001</ele><time>2026-02-08T07:03:04.000Z</time></trkpt>
<trkpt lat="47.834176" lon="35.017893"><ele>87.59999999999999</ele><time>2026-02-08T07:03:05.000Z</time></trkpt>
<trkpt lat="47.834154" lon="35.017911"><ele>87.59999999999999</ele><time>2026-02-08T07:03:06.000Z</time></trkpt>
<trkpt lat="47.834133" lon="35.017927"><ele>87.59999999999999</ele><time>2026-02-08T07:03:07.000Z</time></trkpt>
<trkpt lat="47.834111" lon="35.017942"><ele>87.59999999999999</ele><time>2026-02-08T07:03:08.000Z</time></trkpt>
<trkpt lat="47.834088" lon="35.017955"><ele>87.59999999999999</ele><time>2026-02-08T07:03:09.000Z</time></trkpt>
<trkpt lat="47.834065" lon="35.017965"><ele>88.3</ele><time>2026-02-08T07:03:10.000Z</time></trkpt>
<trkpt lat="47.834041" lon="35.017974"><ele>88.3</ele><time>2026-02-08T07:03:11.000Z</time></trkpt>
<trkpt lat="47.834016" lon="35.017979"><ele>88.3</ele><time>2026-02-08T07:03:12.000Z</time></trkpt>
<trkpt lat="47.833991" lon="35.017983"><ele>88.3</ele><time>2026-02-08T07:03:13.000Z</time></trkpt>
<trkpt lat="47.833967" lon="35.017987"><ele>88.3</ele><time>2026-02-08T07:03:14.000Z</time></trkpt>
<trkpt lat="47.833942" lon="35.017989"><ele>88.59999999999999</ele><time>2026-02-08T07:03:15.000Z</time></trkpt>
<trkpt lat="47.833918" lon="35.01799"><ele>88.59999999999999</ele><time>2026-02-08T07:03:16.000Z</time></trkpt>
<trkpt lat="47.833895" lon="35.01799"><ele>88.59999999999999</ele><time>2026-02-08T07:03:17.000Z</time></trkpt>
<trkpt lat="47.833871" lon="35.01799"><ele>88.59999999999999</ele><time>2026-02-08T07:03:18.000Z</time></trkpt>
<trkpt lat="47.833846" lon="35.017991"><ele>88.59999999999999</ele><time>2026-02-08T07:03:19.000Z</time></trkpt>
<trkpt lat="47.833822" lon="35.017991"><ele>89</ele><time>2026-02-08T07:03:20.000Z</time></trkpt>
<trkpt lat="47.833798" lon="35.017992"><ele>89</ele><time>2026-02-08T07:03:21.000Z</time></trkpt>
<trkpt lat="47.833773" lon="35.017993"><ele>89</ele><time>2026-02-08T07:03:22.000Z</time></trkpt>
<trkpt lat="47.833748" lon="35.017994"><ele>89</ele><time>2026-02-08T07:03:23.000Z</time></trkpt>
<trkpt lat="47.833723" lon="35.017995"><ele>89</ele><time>2026-02-08T07:03:24.000Z</time></trkpt>
<trkpt lat="47.833698" lon="35.017996"><ele>89.09999999999999</ele><time>2026-02-08T07:03:25.000Z</time></trkpt>
<trkpt lat="47.833673" lon="35.017996"><ele>89.09999999999999</ele><time>2026-02-08T07:03:26.000Z</time></trkpt>
<trkpt lat="47.833648" lon="35.017996"><ele>89.09999999999999</ele><time>2026-02-08T07:03:27.000Z</time></trkpt>
<trkpt lat="47.833623" lon="35.017995"><ele>89.09999999999999</ele><time>2026-02-08T07:03:28.000Z</time></trkpt>
<trkpt lat="47.833599" lon="35.017994"><ele>89.09999999999999</ele><time>2026-02-08T07:03:29.000Z</time></trkpt>
<trkpt lat="47.833575" lon="35.017993"><ele>89.2</ele><time>2026-02-08T07:03:30.000Z</time></trkpt>
<trkpt lat="47.83355" lon="35.017992"><ele>89.2</ele><time>2026-02-08T07:03:31.000Z</time></trkpt>
<trkpt lat="47.833526" lon="35.017991"><ele>89.2</ele><time>2026-02-08T07:03:32.000Z</time></trkpt>
<trkpt lat="47.833502" lon="35.017992"><ele>89.2</ele><time>2026-02-08T07:03:33.000Z</time></trkpt>
<trkpt lat="47.833478" lon="35.017994"><ele>89.2</ele><time>2026-02-08T07:03:34.000Z</time></trkpt>
<trkpt lat="47.833452" lon="35.017997"><ele>89.40000000000001</ele><time>2026-02-08T07:03:35.000Z</time></trkpt>
<trkpt lat="47.833427" lon="35.018004"><ele>89.40000000000001</ele><time>2026-02-08T07:03:36.000Z</time></trkpt>
<trkpt lat="47.833402" lon="35.018013"><ele>89.40000000000001</ele><time>2026-02-08T07:03:37.000Z</time></trkpt>
<trkpt lat="47.833376" lon="35.018024"><ele>89.40000000000001</ele><time>2026-02-08T07:03:38.000Z</time></trkpt>
<trkpt lat="47.833352" lon="35.018039"><ele>89.40000000000001</ele><time>2026-02-08T07:03:39.000Z</time></trkpt>
<trkpt lat="47.833329" lon="35.018057"><ele>89.7</ele><time>2026-02-08T07:03:40.000Z</time></trkpt>
<trkpt lat="47.833306" lon="35.018077"><ele>89.7</ele><time>2026-02-08T07:03:41.000Z</time></trkpt>
<trkpt lat="47.833285" lon="35.0181"><ele>89.7</ele><time>2026-02-08T07:03:42.000Z</time></trkpt>
<trkpt lat="47.833265" lon="35.018126"><ele>89.7</ele><time>2026-02-08T07:03:43.000Z</time></trkpt>
<trkpt lat="47.833246" lon="35.018153"><ele>89.7</ele><time>2026-02-08T07:03:44.000Z</time></trkpt>
<trkpt lat="47.833227" lon="35.018179"><ele>89.90000000000001</ele><time>2026-02-08T07:03:45.000Z</time></trkpt>
<trkpt lat="47.833208" lon="35.018204"><ele>89.90000000000001</ele><time>2026-02-08T07:03:46.000Z</time></trkpt>
<trkpt lat="47.83319" lon="35.018228"><ele>89.90000000000001</ele><time>2026-02-08T07:03:47.000Z</time></trkpt>
<trkpt lat="47.833171" lon="35.018249"><ele>89.90000000000001</ele><time>2026-02-08T07:03:48.000Z</time></trkpt>
<trkpt lat="47.833151" lon="35.018268"><ele>89.90000000000001</ele><time>2026-02-08T07:03:49.000Z</time></trkpt>
<trkpt lat="47.833131" lon="35.018286"><ele>90</ele><time>2026-02-08T07:03:50.000Z</time></trkpt>
<trkpt lat="47.83311" lon="35.018303"><ele>90</ele><time>2026-02-08T07:03:51.000Z</time></trkpt>
<trkpt lat="47.833089" lon="35.01832"><ele>90</ele><time>2026-02-08T07:03:52.000Z</time></trkpt>
<trkpt lat="47.833067" lon="35.018338"><ele>90</ele><time>2026-02-08T07:03:53.000Z</time></trkpt>
<trkpt lat="47.833045" lon="35.018355"><ele>90</ele><time>2026-02-08T07:03:54.000Z</time></trkpt>
<trkpt lat="47.833025" lon="35.018372"><ele>90.2</ele><time>2026-02-08T07:03:55.000Z</time></trkpt>
<trkpt lat="47.833004" lon="35.01839"><ele>90.2</ele><time>2026-02-08T07:03:56.000Z</time></trkpt>
<trkpt lat="47.832985" lon="35.01841"><ele>90.2</ele><time>2026-02-08T07:03:57.000Z</time></trkpt>
<trkpt lat="47.832967" lon="35.01843"><ele>90.2</ele><time>2026-02-08T07:03:58.000Z</time></trkpt>
<trkpt lat="47.832949" lon="35.018451"><ele>90.2</ele><time>2026-02-08T07:03:59.000Z</time></trkpt>
<trkpt lat="47.832931" lon="35.018472"><ele>90.3</ele><time>2026-02-08T07:04:00.000Z</time></trkpt>
<trkpt lat="47.832912" lon="35.018491"><ele>90.3</ele><time>2026-02-08T07:04:01.000Z</time></trkpt>
<trkpt lat="47.832893" lon="35.018508"><ele>90.3</ele><time>2026-02-08T07:04:02.000Z</time></trkpt>
<trkpt lat="47.832873" lon="35.018524"><ele>90.3</ele><time>2026-02-08T07:04:03.000Z</time></trkpt>
<trkpt lat="47.832853" lon="35.018538"><ele>90.3</ele><time>2026-02-08T07:04:04.000Z</time></trkpt>
<trkpt lat="47.832832" lon="35.018553"><ele>90.40000000000001</ele><time>2026-02-08T07:04:05.000Z</time></trkpt>
<trkpt lat="47.832813" lon="35.018567"><ele>90.40000000000001</ele><time>2026-02-08T07:04:06.000Z</time></trkpt>
<trkpt lat="47.832794" lon="35.018582"><ele>90.40000000000001</ele><time>2026-02-08T07:04:07.000Z</time></trkpt>
<trkpt lat="47.832775" lon="35.018598"><ele>90.40000000000001</ele><time>2026-02-08T07:04:08.000Z</time></trkpt>
<trkpt lat="47.832756" lon="35.018613"><ele>90.40000000000001</ele><time>2026-02-08T07:04:09.000Z</time></trkpt>
<trkpt lat="47.832737" lon="35.018629"><ele>90.3</ele><time>2026-02-08T07:04:10.000Z</time></trkpt>
<trkpt lat="47.832719" lon="35.018646"><ele>90.3</ele><time>2026-02-08T07:04:11.000Z</time></trkpt>
<trkpt lat="47.832702" lon="35.018664"><ele>90.3</ele><time>2026-02-08T07:04:12.000Z</time></trkpt>
<trkpt lat="47.832688" lon="35.018687"><ele>90.3</ele><time>2026-02-08T07:04:13.000Z</time></trkpt>
<trkpt lat="47.832677" lon="35.018712"><ele>90.3</ele><time>2026-02-08T07:04:14.000Z</time></trkpt>
<trkpt lat="47.832669" lon="35.018741"><ele>90.2</ele><time>2026-02-08T07:04:15.000Z</time></trkpt>
<trkpt lat="47.832663" lon="35.018772"><ele>90.2</ele><time>2026-02-08T07:04:16.000Z</time></trkpt>
<trkpt lat="47.83266" lon="35.018806"><ele>90.2</ele><time>2026-02-08T07:04:17.000Z</time></trkpt>
<trkpt lat="47.832657" lon="35.018839"><ele>90.2</ele><time>2026-02-08T07:04:18.000Z</time></trkpt>
<trkpt lat="47.832655" lon="35.018874"><ele>90.2</ele><time>2026-02-08T07:04:19.000Z</time></trkpt>
<trkpt lat="47.832653" lon="35.01891"><ele>90</ele><time>2026-02-08T07:04:20.000Z</time></trkpt>
<trkpt lat="47.832651" lon="35.018946"><ele>90</ele><time>2026-02-08T07:04:21.000Z</time></trkpt>
<trkpt lat="47.832648" lon="35.018981"><ele>90</ele><time>2026-02-08T07:04:22.000Z</time></trkpt>
<trkpt lat="47.832645" lon="35.019018"><ele>90</ele><time>2026-02-08T07:04:23.000Z</time></trkpt>
<trkpt lat="47.83264" lon="35.019054"><ele>90</ele><time>2026-02-08T07:04:24.000Z</time></trkpt>
<trkpt lat="47.832635" lon="35.01909"><ele>89.7</ele><time>2026-02-08T07:04:25.000Z</time></trkpt>
<trkpt lat="47.832629" lon="35.019126"><ele>89.7</ele><time>2026-02-08T07:04:26.000Z</time></trkpt>
<trkpt lat="47.832622" lon="35.019163"><ele>89.7</ele><time>2026-02-08T07:04:27.000Z</time></trkpt>
<trkpt lat="47.832614" lon="35.019199"><ele>89.7</ele><time>2026-02-08T07:04:28.000Z</time></trkpt>
<trkpt lat="47.832606" lon="35.019236"><ele>89.7</ele><time>2026-02-08T07:04:29.000Z</time></trkpt>
<trkpt lat="47.832599" lon="35.019273"><ele>89.59999999999999</ele><time>2026-02-08T07:04:30.000Z</time></trkpt>
<trkpt lat="47.832592" lon="35.019309"><ele>89.59999999999999</ele><time>2026-02-08T07:04:31.000Z</time></trkpt>
<trkpt lat="47.832585" lon="35.019345"><ele>89.59999999999999</ele><time>2026-02-08T07:04:32.000Z</time></trkpt>
<trkpt lat="47.832579" lon="35.019382"><ele>89.59999999999999</ele><time>2026-02-08T07:04:33.000Z</time></trkpt>
<trkpt lat="47.832572" lon="35.019418"><ele>89.59999999999999</ele><time>2026-02-08T07:04:34.000Z</time></trkpt>
<trkpt lat="47.832566" lon="35.019454"><ele>89.40000000000001</ele><time>2026-02-08T07:04:35.000Z</time></trkpt>
<trkpt lat="47.83256" lon="35.01949"><ele>89.40000000000001</ele><time>2026-02-08T07:04:36.000Z</time></trkpt>
<trkpt lat="47.832553" lon="35.019525"><ele>89.40000000000001</ele><time>2026-02-08T07:04:37.000Z</time></trkpt>
<trkpt lat="47.832546" lon="35.01956"><ele>89.40000000000001</ele><time>2026-02-08T07:04:38.000Z</time></trkpt>
<trkpt lat="47.83254" lon="35.019595"><ele>89.40000000000001</ele><time>2026-02-08T07:04:39.000Z</time></trkpt>
<trkpt lat="47.832535" lon="35.019631"><ele>89.2</ele><time>2026-02-08T07:04:40.000Z</time></trkpt>
<trkpt lat="47.832529" lon="35.019667"><ele>89.2</ele><time>2026-02-08T07:04:41.000Z</time></trkpt>
<trkpt lat="47.832524" lon="35.019704"><ele>89.2</ele><time>2026-02-08T07:04:42.000Z</time></trkpt>
<trkpt lat="47.832519" lon="35.019741"><ele>89.2</ele><time>2026-02-08T07:04:43.000Z</time></trkpt>
<trkpt lat="47.832513" lon="35.019777"><ele>89.2</ele><time>2026-02-08T07:04:44.000Z</time></trkpt>
<trkpt lat="47.832507" lon="35.019814"><ele>89.09999999999999</ele><time>2026-02-08T07:04:45.000Z</time></trkpt>
<trkpt lat="47.832501" lon="35.019852"><ele>89.09999999999999</ele><time>2026-02-08T07:04:46.000Z</time></trkpt>
<trkpt lat="47.832496" lon="35.019889"><ele>89.09999999999999</ele><time>2026-02-08T07:04:47.000Z</time></trkpt>
<trkpt lat="47.83249" lon="35.019925"><ele>89.09999999999999</ele><time>2026-02-08T07:04:48.000Z</time></trkpt>
<trkpt lat="47.832484" lon="35.019962"><ele>89.09999999999999</ele><time>2026-02-08T07:04:49.000Z</time></trkpt>
<trkpt lat="47.832478" lon="35.019998"><ele>88.90000000000001</ele><time>2026-02-08T07:04:50.000Z</time></trkpt>
<trkpt lat="47.832472" lon="35.020036"><ele>88.90000000000001</ele><time>2026-02-08T07:04:51.000Z</time></trkpt>
<trkpt lat="47.832468" lon="35.020075"><ele>88.90000000000001</ele><time>2026-02-08T07:04:52.000Z</time></trkpt>
<trkpt lat="47.832467" lon="35.020114"><ele>88.90000000000001</ele><time>2026-02-08T07:04:53.000Z</time></trkpt>
<trkpt lat="47.832468" lon="35.020153"><ele>88.90000000000001</ele><time>2026-02-08T07:04:54.000Z</time></trkpt>
<trkpt lat="47.832474" lon="35.020192"><ele>88.59999999999999</ele><time>2026-02-08T07:04:55.000Z</time></trkpt>
<trkpt lat="47.832482" lon="35.02023"><ele>88.59999999999999</ele><time>2026-02-08T07:04:56.000Z</time></trkpt>
<trkpt lat="47.832494" lon="35.020266"><ele>88.59999999999999</ele><time>2026-02-08T07:04:57.000Z</time></trkpt>
<trkpt lat="47.832507" lon="35.020302"><ele>88.59999999999999</ele><time>2026-02-08T07:04:58.000Z</time></trkpt>
<trkpt lat="47.832522" lon="35.020337"><ele>88.59999999999999</ele><time>2026-02-08T07:04:59.000Z</time></trkpt>
<trkpt lat="47.832536" lon="35.020372"><ele>88.40000000000001</ele><time>2026-02-08T07:05:00.000Z</time></trkpt>
<trkpt lat="47.832551" lon="35.020406"><ele>88.40000000000001</ele><time>2026-02-08T07:05:01.000Z</time></trkpt>
<trkpt lat="47.832565" lon="35.020441"><ele>88.40000000000001</ele><time>2026-02-08T07:05:02.000Z</time></trkpt>
<trkpt lat="47.832579" lon="35.020475"><ele>88.40000000000001</ele><time>2026-02-08T07:05:03.000Z</time></trkpt>
<trkpt lat="47.832594" lon="35.020508"><ele>88.40000000000001</ele><time>2026-02-08T07:05:04.000Z</time></trkpt>
<trkpt lat="47.832609" lon="35.020541"><ele>87.7</ele><time>2026-02-08T07:05:05.000Z</time></trkpt>
<trkpt lat="47.832624" lon="35.020573"><ele>87.7</ele><time>2026-02-08T07:05:06.000Z</time></trkpt>
<trkpt lat="47.832639" lon="35.020604"><ele>87.7</ele><time>2026-02-08T07:05:07.000Z</time></trkpt>
<trkpt lat="47.832654" lon="35.020636"><ele>87.7</ele><time>2026-02-08T07:05:08.000Z</time></trkpt>
<trkpt lat="47.83267" lon="35.020667"><ele>87.7</ele><time>2026-02-08T07:05:09.000Z</time></trkpt>
<trkpt lat="47.832685" lon="35.020698"><ele>86.90000000000001</ele><time>2026-02-08T07:05:10.000Z</time></trkpt>
<trkpt lat="47.8327" lon="35.02073"><ele>86.90000000000001</ele><time>2026-02-08T07:05:11.000Z</time></trkpt>
<trkpt lat="47.832715" lon="35.02076"><ele>86.90000000000001</ele><time>2026-02-08T07:05:12.000Z</time></trkpt>
<trkpt lat="47.83273" lon="35.020792"><ele>86.90000000000001</ele><time>2026-02-08T07:05:13.000Z</time></trkpt>
<trkpt lat="47.832746" lon="35.020823"><ele>86.90000000000001</ele><time>2026-02-08T07:05:14.000Z</time></trkpt>
<trkpt lat="47.832762" lon="35.020854"><ele>86.5</ele><time>2026-02-08T07:05:15.000Z</time></trkpt>
<trkpt lat="47.832778" lon="35.020884"><ele>86.5</ele><time>2026-02-08T07:05:16.000Z</time></trkpt>
<trkpt lat="47.832795" lon="35.020915"><ele>86.5</ele><time>2026-02-08T07:05:17.000Z</time></trkpt>
<trkpt lat="47.832813" lon="35.020945"><ele>86.5</ele><time>2026-02-08T07:05:18.000Z</time></trkpt>
<trkpt lat="47.83283" lon="35.020976"><ele>86.5</ele><time>2026-02-08T07:05:19.000Z</time></trkpt>
<trkpt lat="47.832849" lon="35.021006"><ele>86.2</ele><time>2026-02-08T07:05:20.000Z</time></trkpt>
<trkpt lat="47.832867" lon="35.021035"><ele>86.2</ele><time>2026-02-08T07:05:21.000Z</time></trkpt>
<trkpt lat="47.832885" lon="35.021065"><ele>86.2</ele><time>2026-02-08T07:05:22.000Z</time></trkpt>
<trkpt lat="47.832904" lon="35.021095"><ele>86.2</ele><time>2026-02-08T07:05:23.000Z</time></trkpt>
<trkpt lat="47.832921" lon="35.021124"><ele>86.2</ele><time>2026-02-08T07:05:24.000Z</time></trkpt>
<trkpt lat="47.832939" lon="35.021153"><ele>85.90000000000001</ele><time>2026-02-08T07:05:25.000Z</time></trkpt>
<trkpt lat="47.832957" lon="35.021182"><ele>85.90000000000001</ele><time>2026-02-08T07:05:26.000Z</time></trkpt>
<trkpt lat="47.832973" lon="35.02121"><ele>85.90000000000001</ele><time>2026-02-08T07:05:27.000Z</time></trkpt>
<trkpt lat="47.832989" lon="35.021238"><ele>85.90000000000001</ele><time>2026-02-08T07:05:28.000Z</time></trkpt>
<trkpt lat="47.833005" lon="35.021267"><ele>85.90000000000001</ele><time>2026-02-08T07:05:29.000Z</time></trkpt>
<trkpt lat="47.83302" lon="35.021295"><ele>85.7</ele><time>2026-02-08T07:05:30.000Z</time></trkpt>
<trkpt lat="47.833035" lon="35.021323"><ele>85.7</ele><time>2026-02-08T07:05:31.000Z</time></trkpt>
<trkpt lat="47.83305" lon="35.021352"><ele>85.7</ele><time>2026-02-08T07:05:32.000Z</time></trkpt>
<trkpt lat="47.833065" lon="35.021381"><ele>85.7</ele><time>2026-02-08T07:05:33.000Z</time></trkpt>
<trkpt lat="47.83308" lon="35.02141"><ele>85.7</ele><time>2026-02-08T07:05:34.000Z</time></trkpt>
<trkpt lat="47.833095" lon="35.02144"><ele>85.09999999999999</ele><time>2026-02-08T07:05:35.000Z</time></trkpt>
<trkpt lat="47.83311" lon="35.02147"><ele>85.09999999999999</ele><time>2026-02-08T07:05:36.000Z</time></trkpt>
<trkpt lat="47.833125" lon="35.021499"><ele>85.09999999999999</ele><time>2026-02-08T07:05:37.000Z</time></trkpt>
<trkpt lat="47.833141" lon="35.021527"><ele>85.09999999999999</ele><time>2026-02-08T07:05:38.000Z</time></trkpt>
<trkpt lat="47.833157" lon="35.021556"><ele>85.09999999999999</ele><time>2026-02-08T07:05:39.000Z</time></trkpt>
<trkpt lat="47.833172" lon="35.021585"><ele>84.40000000000001</ele><time>2026-02-08T07:05:40.000Z</time></trkpt>
<trkpt lat="47.833187" lon="35.021613"><ele>84.40000000000001</ele><time>2026-02-08T07:05:41.000Z</time></trkpt>
<trkpt lat="47.833202" lon="35.021643"><ele>84.40000000000001</ele><time>2026-02-08T07:05:42.000Z</time></trkpt>
<trkpt lat="47.833217" lon="35.021671"><ele>84.40000000000001</ele><time>2026-02-08T07:05:43.000Z</time></trkpt>
<trkpt lat="47.833233" lon="35.0217"><ele>84.40000000000001</ele><time>2026-02-08T07:05:44.000Z</time></trkpt>
<trkpt lat="47.833248" lon="35.021729"><ele>84.09999999999999</ele><time>2026-02-08T07:05:45.000Z</time></trkpt>
<trkpt lat="47.833264" lon="35.021758"><ele>84.09999999999999</ele><time>2026-02-08T07:05:46.000Z</time></trkpt>
<trkpt lat="47.833279" lon="35.021786"><ele>84.09999999999999</ele><time>2026-02-08T07:05:47.000Z</time></trkpt>
<trkpt lat="47.833294" lon="35.021816"><ele>84.09999999999999</ele><time>2026-02-08T07:05:48.000Z</time></trkpt>
<trkpt lat="47.833308" lon="35.021845"><ele>84.09999999999999</ele><time>2026-02-08T07:05:49.000Z</time></trkpt>
<trkpt lat="47.833323" lon="35.021874"><ele>83.5</ele><time>2026-02-08T07:05:50.000Z</time></trkpt>
<trkpt lat="47.833338" lon="35.021904"><ele>83.5</ele><time>2026-02-08T07:05:51.000Z</time></trkpt>
<trkpt lat="47.833353" lon="35.021935"><ele>83.5</ele><time>2026-02-08T07:05:52.000Z</time></trkpt>
<trkpt lat="47.833367" lon="35.021965"><ele>83.5</ele><time>2026-02-08T07:05:53.000Z</time></trkpt>
<trkpt lat="47.833381" lon="35.021996"><ele>83.5</ele><time>2026-02-08T07:05:54.000Z</time></trkpt>
<trkpt lat="47.833395" lon="35.022026"><ele>83.09999999999999</ele><time>2026-02-08T07:05:55.000Z</time></trkpt>
<trkpt lat="47.833409" lon="35.022055"><ele>83.09999999999999</ele><time>2026-02-08T07:05:56.000Z</time></trkpt>
<trkpt lat="47.833421" lon="35.022082"><ele>83.09999999999999</ele><time>2026-02-08T07:05:57.000Z</time></trkpt>
<trkpt lat="47.833434" lon="35.022108"><ele>83.09999999999999</ele><time>2026-02-08T07:05:58.000Z</time></trkpt>
<trkpt lat="47.833448" lon="35.022134"><ele>83.09999999999999</ele><time>2026-02-08T07:05:59.000Z</time></trkpt>
<trkpt lat="47.833462" lon="35.02216"><ele>82.90000000000001</ele><time>2026-02-08T07:06:00.000Z</time></trkpt>
<trkpt lat="47.833476" lon="35.022185"><ele>82.90000000000001</ele><time>2026-02-08T07:06:01.000Z</time></trkpt>
<trkpt lat="47.83349" lon="35.022212"><ele>82.90000000000001</ele><time>2026-02-08T07:06:02.000Z</time></trkpt>
<trkpt lat="47.833503" lon="35.022239"><ele>82.90000000000001</ele><time>2026-02-08T07:06:03.000Z</time></trkpt>
<trkpt lat="47.833515" lon="35.022268"><ele>82.90000000000001</ele><time>2026-02-08T07:06:04.000Z</time></trkpt>
<trkpt lat="47.833524" lon="35.022299"><ele>82.5</ele><time>2026-02-08T07:06:05.000Z</time></trkpt>
<trkpt lat="47.833529" lon="35.022332"><ele>82.5</ele><time>2026-02-08T07:06:06.000Z</time></trkpt>
<trkpt lat="47.833531" lon="35.022366"><ele>82.5</ele><time>2026-02-08T07:06:07.000Z</time></trkpt>
<trkpt lat="47.833529" lon="35.022401"><ele>82.5</ele><time>2026-02-08T07:06:08.000Z</time></trkpt>
<trkpt lat="47.833524" lon="35.022437"><ele>82.5</ele><time>2026-02-08T07:06:09.000Z</time></trkpt>
<trkpt lat="47.833517" lon="35.022472"><ele>82</ele><time>2026-02-08T07:06:10.000Z</time></trkpt>
<trkpt lat="47.833508" lon="35.022506"><ele>82</ele><time>2026-02-08T07:06:11.000Z</time></trkpt>
<trkpt lat="47.833498" lon="35.022541"><ele>82</ele><time>2026-02-08T07:06:12.000Z</time></trkpt>
<trkpt lat="47.833487" lon="35.022575"><ele>82</ele><time>2026-02-08T07:06:13.000Z</time></trkpt>
<trkpt lat="47.833475" lon="35.022608"><ele>82</ele><time>2026-02-08T07:06:14.000Z</time></trkpt>
<trkpt lat="47.833463" lon="35.02264"><ele>81.8</ele><time>2026-02-08T07:06:15.000Z</time></trkpt>
<trkpt lat="47.833451" lon="35.022673"><ele>81.8</ele><time>2026-02-08T07:06:16.000Z</time></trkpt>
<trkpt lat="47.833439" lon="35.022705"><ele>81.8</ele><time>2026-02-08T07:06:17.000Z</time></trkpt>
<trkpt lat="47.833428" lon="35.022738"><ele>81.8</ele><time>2026-02-08T07:06:18.000Z</time></trkpt>
<trkpt lat="47.833417" lon="35.022772"><ele>81.8</ele><time>2026-02-08T07:06:19.000Z</time></trkpt>
<trkpt lat="47.833407" lon="35.022807"><ele>81.2</ele><time>2026-02-08T07:06:20.000Z</time></trkpt>
<trkpt lat="47.833397" lon="35.022843"><ele>81.2</ele><time>2026-02-08T07:06:21.000Z</time></trkpt>
<trkpt lat="47.833388" lon="35.022879"><ele>81.2</ele><time>2026-02-08T07:06:22.000Z</time></trkpt>
<trkpt lat="47.833379" lon="35.022916"><ele>81.2</ele><time>2026-02-08T07:06:23.000Z</time></trkpt>
<trkpt lat="47.83337" lon="35.022953"><ele>81.2</ele><time>2026-02-08T07:06:24.000Z</time></trkpt>
<trkpt lat="47.833362" lon="35.02299"><ele>80.59999999999999</ele><time>2026-02-08T07:06:25.000Z</time></trkpt>
<trkpt lat="47.833353" lon="35.023027"><ele>80.59999999999999</ele><time>2026-02-08T07:06:26.000Z</time></trkpt>
<trkpt lat="47.833345" lon="35.023064"><ele>80.59999999999999</ele><time>2026-02-08T07:06:27.000Z</time></trkpt>
<trkpt lat="47.833336" lon="35.023101"><ele>80.59999999999999</ele><time>2026-02-08T07:06:28.000Z</time></trkpt>
<trkpt lat="47.833327" lon="35.023137"><ele>80.59999999999999</ele><time>2026-02-08T07:06:29.000Z</time></trkpt>
<trkpt lat="47.833319" lon="35.023173"><ele>80.2</ele><time>2026-02-08T07:06:30.000Z</time></trkpt>
<trkpt lat="47.83331" lon="35.023207"><ele>80.2</ele><time>2026-02-08T07:06:31.000Z</time></trkpt>
<trkpt lat="47.833301" lon="35.023241"><ele>80.2</ele><time>2026-02-08T07:06:32.000Z</time></trkpt>
<trkpt lat="47.833292" lon="35.023273"><ele>80.2</ele><time>2026-02-08T07:06:33.000Z</time></trkpt>
<trkpt lat="47.833281" lon="35.023302"><ele>80.2</ele><time>2026-02-08T07:06:34.000Z</time></trkpt>
<trkpt lat="47.833267" lon="35.023328"><ele>79.5</ele><time>2026-02-08T07:06:35.000Z</time></trkpt>
<trkpt lat="47.83325" lon="35.023349"><ele>79.5</ele><time>2026-02-08T07:06:36.000Z</time></trkpt>
<trkpt lat="47.833231" lon="35.023364"><ele>79.5</ele><time>2026-02-08T07:06:37.000Z</time></trkpt>
<trkpt lat="47.83321" lon="35.023372"><ele>79.5</ele><time>2026-02-08T07:06:38.000Z</time></trkpt>
<trkpt lat="47.833187" lon="35.023373"><ele>79.5</ele><time>2026-02-08T07:06:39.000Z</time></trkpt>
<trkpt lat="47.833164" lon="35.023369"><ele>78.7</ele><time>2026-02-08T07:06:40.000Z</time></trkpt>
<trkpt lat="47.833142" lon="35.023362"><ele>78.7</ele><time>2026-02-08T07:06:41.000Z</time></trkpt>
<trkpt lat="47.83312" lon="35.023353"><ele>78.7</ele><time>2026-02-08T07:06:42.000Z</time></trkpt>
<trkpt lat="47.833097" lon="35.023343"><ele>78.7</ele><time>2026-02-08T07:06:43.000Z</time></trkpt>
<trkpt lat="47.833075" lon="35.023334"><ele>78.7</ele><time>2026-02-08T07:06:44.000Z</time></trkpt>
<trkpt lat="47.833052" lon="35.023324"><ele>78.3</ele><time>2026-02-08T07:06:45.000Z</time></trkpt>
<trkpt lat="47.83303" lon="35.023314"><ele>78.3</ele><time>2026-02-08T07:06:46.000Z</time></trkpt>
<trkpt lat="47.833007" lon="35.023305"><ele>78.3</ele><time>2026-02-08T07:06:47.000Z</time></trkpt>
<trkpt lat="47.832984" lon="35.023294"><ele>78.3</ele><time>2026-02-08T07:06:48.000Z</time></trkpt>
<trkpt lat="47.832961" lon="35.023283"><ele>78.3</ele><time>2026-02-08T07:06:49.000Z</time></trkpt>
<trkpt lat="47.832939" lon="35.023272"><ele>77.7</ele><time>2026-02-08T07:06:50.000Z</time></trkpt>
<trkpt lat="47.832916" lon="35.023261"><ele>77.7</ele><time>2026-02-08T07:06:51.000Z</time></trkpt>
<trkpt lat="47.832893" lon="35.02325"><ele>77.7</ele><time>2026-02-08T07:06:52.000Z</time></trkpt>
<trkpt lat="47.83287" lon="35.023238"><ele>77.7</ele><time>2026-02-08T07:06:53.000Z</time></trkpt>
<trkpt lat="47.832847" lon="35.023226"><ele>77.7</ele><time>2026-02-08T07:06:54.000Z</time></trkpt>
<trkpt lat="47.832824" lon="35.023214"><ele>77.59999999999999</ele><time>2026-02-08T07:06:55.000Z</time></trkpt>
<trkpt lat="47.832801" lon="35.023201"><ele>77.59999999999999</ele><time>2026-02-08T07:06:56.000Z</time></trkpt>
<trkpt lat="47.832778" lon="35.023189"><ele>77.59999999999999</ele><time>2026-02-08T07:06:57.000Z</time></trkpt>
<trkpt lat="47.832755" lon="35.023176"><ele>77.59999999999999</ele><time>2026-02-08T07:06:58.000Z</time></trkpt>
<trkpt lat="47.832732" lon="35.023163"><ele>77.59999999999999</ele><time>2026-02-08T07:06:59.000Z</time></trkpt>
<trkpt lat="47.832709" lon="35.023151"><ele>77.59999999999999</ele><time>2026-02-08T07:07:00.000Z</time></trkpt>
<trkpt lat="47.832686" lon="35.023137"><ele>77.59999999999999</ele><time>2026-02-08T07:07:01.000Z</time></trkpt>
<trkpt lat="47.832663" lon="35.023123"><ele>77.59999999999999</ele><time>2026-02-08T07:07:02.000Z</time></trkpt>
<trkpt lat="47.832641" lon="35.023108"><ele>77.59999999999999</ele><time>2026-02-08T07:07:03.000Z</time></trkpt>
<trkpt lat="47.832618" lon="35.023093"><ele>77.59999999999999</ele><time>2026-02-08T07:07:04.000Z</time></trkpt>
<trkpt lat="47.832595" lon="35.023077"><ele>78</ele><time>2026-02-08T07:07:05.000Z</time></trkpt>
<trkpt lat="47.832573" lon="35.023062"><ele>78</ele><time>2026-02-08T07:07:06.000Z</time></trkpt>
<trkpt lat="47.83255" lon="35.023046"><ele>78</ele><time>2026-02-08T07:07:07.000Z</time></trkpt>
<trkpt lat="47.832527" lon="35.023032"><ele>78</ele><time>2026-02-08T07:07:08.000Z</time></trkpt>
<trkpt lat="47.832504" lon="35.023019"><ele>78</ele><time>2026-02-08T07:07:09.000Z</time></trkpt>
<trkpt lat="47.832481" lon="35.023007"><ele>78.40000000000001</ele><time>2026-02-08T07:07:10.000Z</time></trkpt>
<trkpt lat="47.832457" lon="35.022996"><ele>78.40000000000001</ele><time>2026-02-08T07:07:11.000Z</time></trkpt>
<trkpt lat="47.832434" lon="35.022986"><ele>78.40000000000001</ele><time>2026-02-08T07:07:12.000Z</time></trkpt>
<trkpt lat="47.832412" lon="35.022976"><ele>78.40000000000001</ele><time>2026-02-08T07:07:13.000Z</time></trkpt>
<trkpt lat="47.832389" lon="35.022966"><ele>78.40000000000001</ele><time>2026-02-08T07:07:14.000Z</time></trkpt>
<trkpt lat="47.832368" lon="35.022956"><ele>78.59999999999999</ele><time>2026-02-08T07:07:15.000Z</time></trkpt>
<trkpt lat="47.832347" lon="35.022946"><ele>78.59999999999999</ele><time>2026-02-08T07:07:16.000Z</time></trkpt>
<trkpt lat="47.832325" lon="35.022934"><ele>78.59999999999999</ele><time>2026-02-08T07:07:17.000Z</time></trkpt>
<trkpt lat="47.832304" lon="35.022924"><ele>78.59999999999999</ele><time>2026-02-08T07:07:18.000Z</time></trkpt>
<trkpt lat="47.832283" lon="35.022913"><ele>78.59999999999999</ele><time>2026-02-08T07:07:19.000Z</time></trkpt>
<trkpt lat="47.832262" lon="35.022903"><ele>79</ele><time>2026-02-08T07:07:20.000Z</time></trkpt>
<trkpt lat="47.832241" lon="35.022891"><ele>79</ele><time>2026-02-08T07:07:21.000Z</time></trkpt>
<trkpt lat="47.832221" lon="35.022879"><ele>79</ele><time>2026-02-08T07:07:22.000Z</time></trkpt>
<trkpt lat="47.832201" lon="35.022867"><ele>79</ele><time>2026-02-08T07:07:23.000Z</time></trkpt>
<trkpt lat="47.832183" lon="35.022853"><ele>79</ele><time>2026-02-08T07:07:24.000Z</time></trkpt>
<trkpt lat="47.832164" lon="35.022838"><ele>79.5</ele><time>2026-02-08T07:07:25.000Z</time></trkpt>
<trkpt lat="47.832147" lon="35.022823"><ele>79.5</ele><time>2026-02-08T07:07:26.000Z</time></trkpt>
<trkpt lat="47.83213" lon="35.022805"><ele>79.5</ele><time>2026-02-08T07:07:27.000Z</time></trkpt>
<trkpt lat="47.832114" lon="35.022784"><ele>79.5</ele><time>2026-02-08T07:07:28.000Z</time></trkpt>
<trkpt lat="47.8321" lon="35.022762"><ele>79.5</ele><time>2026-02-08T07:07:29.000Z</time></trkpt>
<trkpt lat="47.832087" lon="35.022736"><ele>79.7</ele><time>2026-02-08T07:07:30.000Z</time></trkpt>
<trkpt lat="47.832077" lon="35.022707"><ele>79.7</ele><time>2026-02-08T07:07:31.000Z</time></trkpt>
<trkpt lat="47.832068" lon="35.022678"><ele>79.7</ele><time>2026-02-08T07:07:32.000Z</time></trkpt>
<trkpt lat="47.832061" lon="35.022648"><ele>79.7</ele><time>2026-02-08T07:07:33.000Z</time></trkpt>
<trkpt lat="47.832053" lon="35.022617"><ele>79.7</ele><time>2026-02-08T07:07:34.000Z</time></trkpt>
<trkpt lat="47.832046" lon="35.022587"><ele>80.2</ele><time>2026-02-08T07:07:35.000Z</time></trkpt>
<trkpt lat="47.832039" lon="35.022558"><ele>80.2</ele><time>2026-02-08T07:07:36.000Z</time></trkpt>
<trkpt lat="47.832031" lon="35.022528"><ele>80.2</ele><time>2026-02-08T07:07:37.000Z</time></trkpt>
<trkpt lat="47.832024" lon="35.022498"><ele>80.2</ele><time>2026-02-08T07:07:38.000Z</time></trkpt>
<trkpt lat="47.832016" lon="35.022469"><ele>80.2</ele><time>2026-02-08T07:07:39.000Z</time></trkpt>
<trkpt lat="47.832009" lon="35.02244"><ele>80.7</ele><time>2026-02-08T07:07:40.000Z</time></trkpt>
<trkpt lat="47.832004" lon="35.022411"><ele>80.7</ele><time>2026-02-08T07:07:41.000Z</time></trkpt>
<trkpt lat="47.832" lon="35.022382"><ele>80.7</ele><time>2026-02-08T07:07:42.000Z</time></trkpt>
<trkpt lat="47.831997" lon="35.022353"><ele>80.7</ele><time>2026-02-08T07:07:43.000Z</time></trkpt>
<trkpt lat="47.831997" lon="35.022323"><ele>80.7</ele><time>2026-02-08T07:07:44.000Z</time></trkpt>
<trkpt lat="47.831999" lon="35.022293"><ele>80.90000000000001</ele><time>2026-02-08T07:07:45.000Z</time></trkpt>
<trkpt lat="47.832003" lon="35.022262"><ele>80.90000000000001</ele><time>2026-02-08T07:07:46.000Z</time></trkpt>
<trkpt lat="47.832008" lon="35.02223"><ele>80.90000000000001</ele><time>2026-02-08T07:07:47.000Z</time></trkpt>
<trkpt lat="47.832014" lon="35.022199"><ele>80.90000000000001</ele><time>2026-02-08T07:07:48.000Z</time></trkpt>
<trkpt lat="47.83202" lon="35.022167"><ele>80.90000000000001</ele><time>2026-02-08T07:07:49.000Z</time></trkpt>
<trkpt lat="47.832026" lon="35.022135"><ele>81.09999999999999</ele><time>2026-02-08T07:07:50.000Z</time></trkpt>
<trkpt lat="47.832031" lon="35.022103"><ele>81.09999999999999</ele><time>2026-02-08T07:07:51.000Z</time></trkpt>
<trkpt lat="47.832035" lon="35.02207"><ele>81.09999999999999</ele><time>2026-02-08T07:07:52.000Z</time></trkpt>
<trkpt lat="47.832039" lon="35.022037"><ele>81.09999999999999</ele><time>2026-02-08T07:07:53.000Z</time></trkpt>
<trkpt lat="47.832041" lon="35.022004"><ele>81.09999999999999</ele><time>2026-02-08T07:07:54.000Z</time></trkpt>
<trkpt lat="47.832044" lon="35.021972"><ele>81.40000000000001</ele><time>2026-02-08T07:07:55.000Z</time></trkpt>
<trkpt lat="47.832049" lon="35.021939"><ele>81.40000000000001</ele><time>2026-02-08T07:07:56.000Z</time></trkpt>
<trkpt lat="47.832055" lon="35.021908"><ele>81.40000000000001</ele><time>2026-02-08T07:07:57.000Z</time></trkpt>
<trkpt lat="47.832062" lon="35.021876"><ele>81.40000000000001</ele><time>2026-02-08T07:07:58.000Z</time></trkpt>
<trkpt lat="47.832068" lon="35.021845"><ele>81.40000000000001</ele><time>2026-02-08T07:07:59.000Z</time></trkpt>
<trkpt lat="47.832071" lon="35.021815"><ele>81.7</ele><time>2026-02-08T07:08:00.000Z</time></trkpt>
<trkpt lat="47.832067" lon="35.021788"><ele>81.7</ele><time>2026-02-08T07:08:01.000Z</time></trkpt>
<trkpt lat="47.832057" lon="35.021763"><ele>81.7</ele><time>2026-02-08T07:08:02.000Z</time></trkpt>
<trkpt lat="47.832041" lon="35.021743"><ele>81.7</ele><time>2026-02-08T07:08:03.000Z</time></trkpt>
<trkpt lat="47.832021" lon="35.021728"><ele>81.7</ele><time>2026-02-08T07:08:04.000Z</time></trkpt>
<trkpt lat="47.832" lon="35.021716"><ele>82.2</ele><time>2026-02-08T07:08:05.000Z</time></trkpt>
<trkpt lat="47.831977" lon="35.021707"><ele>82.2</ele><time>2026-02-08T07:08:06.000Z</time></trkpt>
<trkpt lat="47.831955" lon="35.021698"><ele>82.2</ele><time>2026-02-08T07:08:07.000Z</time></trkpt>
<trkpt lat="47.831932" lon="35.021689"><ele>82.2</ele><time>2026-02-08T07:08:08.000Z</time></trkpt>
<trkpt lat="47.83191" lon="35.021681"><ele>82.2</ele><time>2026-02-08T07:08:09.000Z</time></trkpt>
<trkpt lat="47.831887" lon="35.021673"><ele>82.7</ele><time>2026-02-08T07:08:10.000Z</time></trkpt>
<trkpt lat="47.831865" lon="35.021664"><ele>82.7</ele><time>2026-02-08T07:08:11.000Z</time></trkpt>
<trkpt lat="47.831842" lon="35.021655"><ele>82.7</ele><time>2026-02-08T07:08:12.000Z</time></trkpt>
<trkpt lat="47.831819" lon="35.021646"><ele>82.7</ele><time>2026-02-08T07:08:13.000Z</time></trkpt>
<trkpt lat="47.831795" lon="35.021639"><ele>82.7</ele><time>2026-02-08T07:08:14.000Z</time></trkpt>
<trkpt lat="47.831772" lon="35.021632"><ele>82.90000000000001</ele><time>2026-02-08T07:08:15.000Z</time></trkpt>
<trkpt lat="47.831747" lon="35.021626"><ele>82.90000000000001</ele><time>2026-02-08T07:08:16.000Z</time></trkpt>
<trkpt lat="47.831722" lon="35.021621"><ele>82.90000000000001</ele><time>2026-02-08T07:08:17.000Z</time></trkpt>
<trkpt lat="47.831697" lon="35.021615"><ele>82.90000000000001</ele><time>2026-02-08T07:08:18.000Z</time></trkpt>
<trkpt lat="47.831672" lon="35.021609"><ele>82.90000000000001</ele><time>2026-02-08T07:08:19.000Z</time></trkpt>
<trkpt lat="47.831647" lon="35.021601"><ele>83.09999999999999</ele><time>2026-02-08T07:08:20.000Z</time></trkpt>
<trkpt lat="47.831623" lon="35.021593"><ele>83.09999999999999</ele><time>2026-02-08T07:08:21.000Z</time></trkpt>
<trkpt lat="47.831599" lon="35.021584"><ele>83.09999999999999</ele><time>2026-02-08T07:08:22.000Z</time></trkpt>
<trkpt lat="47.831575" lon="35.021574"><ele>83.09999999999999</ele><time>2026-02-08T07:08:23.000Z</time></trkpt>
<trkpt lat="47.831551" lon="35.021565"><ele>83.09999999999999</ele><time>2026-02-08T07:08:24.000Z</time></trkpt>
<trkpt lat="47.831527" lon="35.021556"><ele>83.2</ele><time>2026-02-08T07:08:25.000Z</time></trkpt>
<trkpt lat="47.831503" lon="35.021548"><ele>83.2</ele><time>2026-02-08T07:08:26.000Z</time></trkpt>
<trkpt lat="47.831479" lon="35.021542"><ele>83.2</ele><time>2026-02-08T07:08:27.000Z</time></trkpt>
<trkpt lat="47.831454" lon="35.021537"><ele>83.2</ele><time>2026-02-08T07:08:28.000Z</time></trkpt>
<trkpt lat="47.83143" lon="35.021532"><ele>83.2</ele><time>2026-02-08T07:08:29.000Z</time></trkpt>
<trkpt lat="47.831406" lon="35.021527"><ele>83.2</ele><time>2026-02-08T07:08:30.000Z</time></trkpt>
<trkpt lat="47.831382" lon="35.021522"><ele>83.2</ele><time>2026-02-08T07:08:31.000Z</time></trkpt>
<trkpt lat="47.831358" lon="35.021516"><ele>83.2</ele><time>2026-02-08T07:08:32.000Z</time></trkpt>
<trkpt lat="47.831334" lon="35.02151"><ele>83.2</ele><time>2026-02-08T07:08:33.000Z</time></trkpt>
<trkpt lat="47.83131" lon="35.021503"><ele>83.2</ele><time>2026-02-08T07:08:34.000Z</time></trkpt>
<trkpt lat="47.831286" lon="35.021496"><ele>83.3</ele><time>2026-02-08T07:08:35.000Z</time></trkpt>
<trkpt lat="47.831264" lon="35.021487"><ele>83.3</ele><time>2026-02-08T07:08:36.000Z</time></trkpt>
<trkpt lat="47.831242" lon="35.021476"><ele>83.3</ele><time>2026-02-08T07:08:37.000Z</time></trkpt>
<trkpt lat="47.83122" lon="35.021462"><ele>83.3</ele><time>2026-02-08T07:08:38.000Z</time></trkpt>
<trkpt lat="47.831201" lon="35.021445"><ele>83.3</ele><time>2026-02-08T07:08:39.000Z</time></trkpt>
<trkpt lat="47.831183" lon="35.021423"><ele>83.2</ele><time>2026-02-08T07:08:40.000Z</time></trkpt>
<trkpt lat="47.831167" lon="35.021399"><ele>83.2</ele><time>2026-02-08T07:08:41.000Z</time></trkpt>
<trkpt lat="47.831151" lon="35.021373"><ele>83.2</ele><time>2026-02-08T07:08:42.000Z</time></trkpt>
<trkpt lat="47.831136" lon="35.021346"><ele>83.2</ele><time>2026-02-08T07:08:43.000Z</time></trkpt>
<trkpt lat="47.831122" lon="35.021318"><ele>83.2</ele><time>2026-02-08T07:08:44.000Z</time></trkpt>
<trkpt lat="47.831107" lon="35.021292"><ele>83.09999999999999</ele><time>2026-02-08T07:08:45.000Z</time></trkpt>
<trkpt lat="47.831092" lon="35.021266"><ele>83.09999999999999</ele><time>2026-02-08T07:08:46.000Z</time></trkpt>
<trkpt lat="47.831077" lon="35.021242"><ele>83.09999999999999</ele><time>2026-02-08T07:08:47.000Z</time></trkpt>
<trkpt lat="47.831063" lon="35.021221"><ele>83.09999999999999</ele><time>2026-02-08T07:08:48.000Z</time></trkpt>
<trkpt lat="47.831049" lon="35.021202"><ele>83.09999999999999</ele><time>2026-02-08T07:08:49.000Z</time></trkpt>
<trkpt lat="47.831037" lon="35.021184"><ele>83.09999999999999</ele><time>2026-02-08T07:08:50.000Z</time></trkpt>
<trkpt lat="47.831026" lon="35.021168"><ele>83.09999999999999</ele><time>2026-02-08T07:08:51.000Z</time></trkpt>
<trkpt lat="47.831016" lon="35.021155"><ele>83.09999999999999</ele><time>2026-02-08T07:08:52.000Z</time></trkpt>
<trkpt lat="47.831006" lon="35.021144"><ele>83.09999999999999</ele><time>2026-02-08T07:08:53.000Z</time></trkpt>
<trkpt lat="47.830995" lon="35.021136"><ele>83.09999999999999</ele><time>2026-02-08T07:08:54.000Z</time></trkpt>
<trkpt lat="47.830985" lon="35.021133"><ele>83.7</ele><time>2026-02-08T07:08:55.000Z</time></trkpt>
<trkpt lat="47.830975" lon="35.021134"><ele>83.7</ele><time>2026-02-08T07:08:56.000Z</time></trkpt>
<trkpt lat="47.830965" lon="35.021139"><ele>83.7</ele><time>2026-02-08T07:08:57.000Z</time></trkpt>
<trkpt lat="47.830956" lon="35.021145"><ele>83.7</ele><time>2026-02-08T07:08:58.000Z</time></trkpt>
<trkpt lat="47.830946" lon="35.021154"><ele>83.7</ele><time>2026-02-08T07:08:59.000Z</time></trkpt>
<trkpt lat="47.830937" lon="35.021161"><ele>84.2</ele><time>2026-02-08T07:09:00.000Z</time></trkpt>
<trkpt lat="47.830928" lon="35.021167"><ele>84.2</ele><time>2026-02-08T07:09:01.000Z</time></trkpt>
<trkpt lat="47.83092" lon="35.021174"><ele>84.2</ele><time>2026-02-08T07:09:02.000Z</time></trkpt>
<trkpt lat="47.830914" lon="35.021182"><ele>84.2</ele><time>2026-02-08T07:09:03.000Z</time></trkpt>
<trkpt lat="47.830909" lon="35.02119"><ele>84.2</ele><time>2026-02-08T07:09:04.000Z</time></trkpt>
<trkpt lat="47.830907" lon="35.021199"><ele>85.3</ele><time>2026-02-08T07:09:05.000Z</time></trkpt>
<trkpt lat="47.830908" lon="35.021208"><ele>85.3</ele><time>2026-02-08T07:09:06.000Z</time></trkpt>
<trkpt lat="47.83091" lon="35.021218"><ele>85.3</ele><time>2026-02-08T07:09:07.000Z</time></trkpt>
<trkpt lat="47.830914" lon="35.021223"><ele>85.3</ele><time>2026-02-08T07:09:08.000Z</time></trkpt>
</trkseg></trk></gpx>